<?xml version="1.0" encoding="UTF-8"?>
<gpx version="1.1" creator="trails-of-piateda fixtures" xmlns="http://www.topografix.com/GPX/1/1">
  <metadata>
    <name>Percorso chiuso</name>
  </metadata>
  <trk>
    <name>Percorso chiuso</name>
    <trkseg>
      <trkpt lat="46.169997" lon="9.900008"><ele>399.4</ele></trkpt>
      <trkpt lat="46.170095" lon="9.900126"><ele>400.0</ele></trkpt>
      <trkpt lat="46.170210" lon="9.900259"><ele>400.3</ele></trkpt>
      <trkpt lat="46.170306" lon="9.900404"><ele>399.9</ele></trkpt>
      <trkpt lat="46.170409" lon="9.900536"><ele>400.3</ele></trkpt>
      <trkpt lat="46.170500" lon="9.900666"><ele>400.3</ele></trkpt>
      <trkpt lat="46.170611" lon="9.900793"><ele>401.5</ele></trkpt>
      <trkpt lat="46.170699" lon="9.900912"><ele>401.3</ele></trkpt>
      <trkpt lat="46.170808" lon="9.901029"><ele>400.9</ele></trkpt>
      <trkpt lat="46.170902" lon="9.901148"><ele>400.1</ele></trkpt>
      <trkpt lat="46.171004" lon="9.901265"><ele>401.9</ele></trkpt>
      <trkpt lat="46.171110" lon="9.901366"><ele>401.5</ele></trkpt>
      <trkpt lat="46.171205" lon="9.901476"><ele>401.1</ele></trkpt>
      <trkpt lat="46.171300" lon="9.901582"><ele>402.4</ele></trkpt>
      <trkpt lat="46.171414" lon="9.901668"><ele>403.4</ele></trkpt>
      <trkpt lat="46.171502" lon="9.901774"><ele>402.5</ele></trkpt>
      <trkpt lat="46.171605" lon="9.901853"><ele>402.7</ele></trkpt>
      <trkpt lat="46.171715" lon="9.901934"><ele>403.0</ele></trkpt>
      <trkpt lat="46.171814" lon="9.902002"><ele>404.8</ele></trkpt>
      <trkpt lat="46.171916" lon="9.902072"><ele>404.5</ele></trkpt>
      <trkpt lat="46.172004" lon="9.902138"><ele>405.4</ele></trkpt>
      <trkpt lat="46.172097" lon="9.902194"><ele>405.5</ele></trkpt>
      <trkpt lat="46.172213" lon="9.902241"><ele>407.4</ele></trkpt>
      <trkpt lat="46.172307" lon="9.902278"><ele>407.5</ele></trkpt>
      <trkpt lat="46.172410" lon="9.902336"><ele>407.5</ele></trkpt>
      <trkpt lat="46.172514" lon="9.902366"><ele>408.2</ele></trkpt>
      <trkpt lat="46.172614" lon="9.902402"><ele>408.6</ele></trkpt>
      <trkpt lat="46.172707" lon="9.902428"><ele>411.0</ele></trkpt>
      <trkpt lat="46.172809" lon="9.902449"><ele>410.0</ele></trkpt>
      <trkpt lat="46.172900" lon="9.902449"><ele>410.7</ele></trkpt>
      <trkpt lat="46.173002" lon="9.902475"><ele>413.1</ele></trkpt>
      <trkpt lat="46.173114" lon="9.902491"><ele>412.8</ele></trkpt>
      <trkpt lat="46.173214" lon="9.902487"><ele>414.8</ele></trkpt>
      <trkpt lat="46.173314" lon="9.902490"><ele>415.3</ele></trkpt>
      <trkpt lat="46.173419" lon="9.902500"><ele>416.7</ele></trkpt>
      <trkpt lat="46.173504" lon="9.902504"><ele>417.0</ele></trkpt>
      <trkpt lat="46.173605" lon="9.902507"><ele>417.2</ele></trkpt>
      <trkpt lat="46.173710" lon="9.902505"><ele>419.7</ele></trkpt>
      <trkpt lat="46.173803" lon="9.902508"><ele>420.2</ele></trkpt>
      <trkpt lat="46.173921" lon="9.902498"><ele>420.7</ele></trkpt>
      <trkpt lat="46.174017" lon="9.902491"><ele>420.9</ele></trkpt>
      <trkpt lat="46.174116" lon="9.902510"><ele>423.0</ele></trkpt>
      <trkpt lat="46.174220" lon="9.902505"><ele>423.7</ele></trkpt>
      <trkpt lat="46.174323" lon="9.902508"><ele>426.1</ele></trkpt>
      <trkpt lat="46.174406" lon="9.902517"><ele>426.8</ele></trkpt>
      <trkpt lat="46.174522" lon="9.902523"><ele>427.1</ele></trkpt>
      <trkpt lat="46.174618" lon="9.902545"><ele>427.9</ele></trkpt>
      <trkpt lat="46.174714" lon="9.902572"><ele>430.6</ele></trkpt>
      <trkpt lat="46.174822" lon="9.902593"><ele>431.9</ele></trkpt>
      <trkpt lat="46.174916" lon="9.902611"><ele>432.5</ele></trkpt>
      <trkpt lat="46.175015" lon="9.902648"><ele>433.4</ele></trkpt>
      <trkpt lat="46.175119" lon="9.902682"><ele>435.3</ele></trkpt>
      <trkpt lat="46.175210" lon="9.902729"><ele>436.9</ele></trkpt>
      <trkpt lat="46.175320" lon="9.902780"><ele>437.2</ele></trkpt>
      <trkpt lat="46.175422" lon="9.902821"><ele>439.0</ele></trkpt>
      <trkpt lat="46.175519" lon="9.902879"><ele>441.4</ele></trkpt>
      <trkpt lat="46.175622" lon="9.902945"><ele>441.8</ele></trkpt>
      <trkpt lat="46.175713" lon="9.903022"><ele>443.2</ele></trkpt>
      <trkpt lat="46.175811" lon="9.903098"><ele>444.2</ele></trkpt>
      <trkpt lat="46.175913" lon="9.903163"><ele>446.6</ele></trkpt>
      <trkpt lat="46.176018" lon="9.903260"><ele>448.5</ele></trkpt>
      <trkpt lat="46.176125" lon="9.903341"><ele>449.9</ele></trkpt>
      <trkpt lat="46.176213" lon="9.903435"><ele>451.4</ele></trkpt>
      <trkpt lat="46.176323" lon="9.903555"><ele>451.9</ele></trkpt>
      <trkpt lat="46.176430" lon="9.903646"><ele>454.8</ele></trkpt>
      <trkpt lat="46.176529" lon="9.903771"><ele>456.8</ele></trkpt>
      <trkpt lat="46.176632" lon="9.903880"><ele>458.2</ele></trkpt>
      <trkpt lat="46.176732" lon="9.904002"><ele>458.5</ele></trkpt>
      <trkpt lat="46.176832" lon="9.904126"><ele>461.2</ele></trkpt>
      <trkpt lat="46.176925" lon="9.904249"><ele>463.6</ele></trkpt>
      <trkpt lat="46.177028" lon="9.904365"><ele>465.2</ele></trkpt>
      <trkpt lat="46.177130" lon="9.904505"><ele>465.8</ele></trkpt>
      <trkpt lat="46.177225" lon="9.904626"><ele>467.6</ele></trkpt>
      <trkpt lat="46.177331" lon="9.904763"><ele>470.7</ele></trkpt>
      <trkpt lat="46.177423" lon="9.904908"><ele>471.6</ele></trkpt>
      <trkpt lat="46.177534" lon="9.905026"><ele>474.0</ele></trkpt>
      <trkpt lat="46.177633" lon="9.905168"><ele>476.2</ele></trkpt>
      <trkpt lat="46.177727" lon="9.905305"><ele>478.1</ele></trkpt>
      <trkpt lat="46.177817" lon="9.905438"><ele>480.0</ele></trkpt>
      <trkpt lat="46.177923" lon="9.905568"><ele>481.2</ele></trkpt>
      <trkpt lat="46.178023" lon="9.905690"><ele>482.8</ele></trkpt>
      <trkpt lat="46.178125" lon="9.905819"><ele>485.8</ele></trkpt>
      <trkpt lat="46.178222" lon="9.905952"><ele>487.6</ele></trkpt>
      <trkpt lat="46.178337" lon="9.906063"><ele>488.4</ele></trkpt>
      <trkpt lat="46.178437" lon="9.906171"><ele>492.2</ele></trkpt>
      <trkpt lat="46.178534" lon="9.906285"><ele>492.7</ele></trkpt>
      <trkpt lat="46.178624" lon="9.906406"><ele>495.0</ele></trkpt>
      <trkpt lat="46.178726" lon="9.906500"><ele>497.8</ele></trkpt>
      <trkpt lat="46.178822" lon="9.906611"><ele>499.4</ele></trkpt>
      <trkpt lat="46.178939" lon="9.906707"><ele>501.9</ele></trkpt>
      <trkpt lat="46.179032" lon="9.906797"><ele>503.7</ele></trkpt>
      <trkpt lat="46.179138" lon="9.906873"><ele>506.2</ele></trkpt>
      <trkpt lat="46.179234" lon="9.906958"><ele>508.0</ele></trkpt>
      <trkpt lat="46.179340" lon="9.907010"><ele>509.4</ele></trkpt>
      <trkpt lat="46.179429" lon="9.907093"><ele>512.0</ele></trkpt>
      <trkpt lat="46.179530" lon="9.907144"><ele>513.7</ele></trkpt>
      <trkpt lat="46.179638" lon="9.907194"><ele>516.5</ele></trkpt>
      <trkpt lat="46.179726" lon="9.907261"><ele>519.0</ele></trkpt>
      <trkpt lat="46.179834" lon="9.907296"><ele>521.6</ele></trkpt>
      <trkpt lat="46.179938" lon="9.907346"><ele>522.6</ele></trkpt>
      <trkpt lat="46.180034" lon="9.907380"><ele>526.5</ele></trkpt>
      <trkpt lat="46.180142" lon="9.907396"><ele>528.0</ele></trkpt>
      <trkpt lat="46.180243" lon="9.907426"><ele>530.8</ele></trkpt>
      <trkpt lat="46.180331" lon="9.907446"><ele>532.4</ele></trkpt>
      <trkpt lat="46.180430" lon="9.907465"><ele>535.2</ele></trkpt>
      <trkpt lat="46.180526" lon="9.907484"><ele>538.3</ele></trkpt>
      <trkpt lat="46.180635" lon="9.907477"><ele>540.5</ele></trkpt>
      <trkpt lat="46.180731" lon="9.907499"><ele>541.0</ele></trkpt>
      <trkpt lat="46.180843" lon="9.907495"><ele>543.4</ele></trkpt>
      <trkpt lat="46.180944" lon="9.907500"><ele>547.1</ele></trkpt>
      <trkpt lat="46.181038" lon="9.907491"><ele>548.4</ele></trkpt>
      <trkpt lat="46.181133" lon="9.907510"><ele>551.1</ele></trkpt>
      <trkpt lat="46.181233" lon="9.907496"><ele>553.3</ele></trkpt>
      <trkpt lat="46.181328" lon="9.907498"><ele>556.2</ele></trkpt>
      <trkpt lat="46.181438" lon="9.907501"><ele>558.0</ele></trkpt>
      <trkpt lat="46.181545" lon="9.907504"><ele>561.9</ele></trkpt>
      <trkpt lat="46.181645" lon="9.907510"><ele>562.9</ele></trkpt>
      <trkpt lat="46.181744" lon="9.907515"><ele>566.5</ele></trkpt>
      <trkpt lat="46.181833" lon="9.907519"><ele>568.8</ele></trkpt>
      <trkpt lat="46.181946" lon="9.907531"><ele>570.5</ele></trkpt>
      <trkpt lat="46.182037" lon="9.907539"><ele>573.8</ele></trkpt>
      <trkpt lat="46.182138" lon="9.907556"><ele>576.6</ele></trkpt>
      <trkpt lat="46.182231" lon="9.907562"><ele>578.5</ele></trkpt>
      <trkpt lat="46.182333" lon="9.907598"><ele>581.5</ele></trkpt>
      <trkpt lat="46.182447" lon="9.907631"><ele>583.0</ele></trkpt>
      <trkpt lat="46.182545" lon="9.907659"><ele>585.7</ele></trkpt>
      <trkpt lat="46.182650" lon="9.907701"><ele>588.7</ele></trkpt>
      <trkpt lat="46.182751" lon="9.907727"><ele>591.4</ele></trkpt>
      <trkpt lat="46.182838" lon="9.907794"><ele>594.3</ele></trkpt>
      <trkpt lat="46.182947" lon="9.907835"><ele>597.1</ele></trkpt>
      <trkpt lat="46.183052" lon="9.907902"><ele>599.3</ele></trkpt>
      <trkpt lat="46.183138" lon="9.907969"><ele>601.5</ele></trkpt>
      <trkpt lat="46.183250" lon="9.908040"><ele>604.0</ele></trkpt>
      <trkpt lat="46.183352" lon="9.908116"><ele>606.3</ele></trkpt>
      <trkpt lat="46.183445" lon="9.908201"><ele>609.6</ele></trkpt>
      <trkpt lat="46.183537" lon="9.908274"><ele>611.3</ele></trkpt>
      <trkpt lat="46.183651" lon="9.908382"><ele>614.4</ele></trkpt>
      <trkpt lat="46.183745" lon="9.908471"><ele>616.6</ele></trkpt>
      <trkpt lat="46.183839" lon="9.908577"><ele>620.2</ele></trkpt>
      <trkpt lat="46.183952" lon="9.908675"><ele>621.9</ele></trkpt>
      <trkpt lat="46.184048" lon="9.908799"><ele>625.6</ele></trkpt>
      <trkpt lat="46.184152" lon="9.908899"><ele>627.0</ele></trkpt>
      <trkpt lat="46.184252" lon="9.909033"><ele>630.7</ele></trkpt>
      <trkpt lat="46.184347" lon="9.909144"><ele>633.6</ele></trkpt>
      <trkpt lat="46.184453" lon="9.909267"><ele>634.7</ele></trkpt>
      <trkpt lat="46.184552" lon="9.909405"><ele>638.9</ele></trkpt>
      <trkpt lat="46.184658" lon="9.909539"><ele>639.9</ele></trkpt>
      <trkpt lat="46.184743" lon="9.909660"><ele>642.4</ele></trkpt>
      <trkpt lat="46.184852" lon="9.909795"><ele>645.5</ele></trkpt>
      <trkpt lat="46.184959" lon="9.909938"><ele>649.3</ele></trkpt>
      <trkpt lat="46.185052" lon="9.910064"><ele>651.2</ele></trkpt>
      <trkpt lat="46.185152" lon="9.910196"><ele>653.1</ele></trkpt>
      <trkpt lat="46.185249" lon="9.910326"><ele>656.1</ele></trkpt>
      <trkpt lat="46.185346" lon="9.910471"><ele>658.4</ele></trkpt>
      <trkpt lat="46.185457" lon="9.910587"><ele>661.0</ele></trkpt>
      <trkpt lat="46.185544" lon="9.910730"><ele>664.4</ele></trkpt>
      <trkpt lat="46.185647" lon="9.910858"><ele>667.0</ele></trkpt>
      <trkpt lat="46.185753" lon="9.910970"><ele>670.6</ele></trkpt>
      <trkpt lat="46.185847" lon="9.911100"><ele>671.9</ele></trkpt>
      <trkpt lat="46.185958" lon="9.911205"><ele>674.3</ele></trkpt>
      <trkpt lat="46.186049" lon="9.911323"><ele>677.3</ele></trkpt>
      <trkpt lat="46.186162" lon="9.911424"><ele>679.3</ele></trkpt>
      <trkpt lat="46.186250" lon="9.911534"><ele>682.9</ele></trkpt>
      <trkpt lat="46.186348" lon="9.911631"><ele>685.2</ele></trkpt>
      <trkpt lat="46.186456" lon="9.911714"><ele>687.7</ele></trkpt>
      <trkpt lat="46.186563" lon="9.911799"><ele>689.8</ele></trkpt>
      <trkpt lat="46.186653" lon="9.911882"><ele>693.8</ele></trkpt>
      <trkpt lat="46.186750" lon="9.911963"><ele>696.7</ele></trkpt>
      <trkpt lat="46.186855" lon="9.912041"><ele>699.2</ele></trkpt>
      <trkpt lat="46.186962" lon="9.912109"><ele>701.4</ele></trkpt>
      <trkpt lat="46.187050" lon="9.912170"><ele>703.7</ele></trkpt>
      <trkpt lat="46.187159" lon="9.912221"><ele>705.7</ele></trkpt>
      <trkpt lat="46.187267" lon="9.912261"><ele>707.8</ele></trkpt>
      <trkpt lat="46.187361" lon="9.912312"><ele>710.4</ele></trkpt>
      <trkpt lat="46.187451" lon="9.912350"><ele>714.0</ele></trkpt>
      <trkpt lat="46.187550" lon="9.912382"><ele>716.8</ele></trkpt>
      <trkpt lat="46.187661" lon="9.912406"><ele>718.1</ele></trkpt>
      <trkpt lat="46.187768" lon="9.912421"><ele>722.2</ele></trkpt>
      <trkpt lat="46.187857" lon="9.912448"><ele>724.6</ele></trkpt>
      <trkpt lat="46.187960" lon="9.912467"><ele>725.8</ele></trkpt>
      <trkpt lat="46.188052" lon="9.912478"><ele>729.2</ele></trkpt>
      <trkpt lat="46.188170" lon="9.912478"><ele>730.9</ele></trkpt>
      <trkpt lat="46.188263" lon="9.912495"><ele>732.9</ele></trkpt>
      <trkpt lat="46.188354" lon="9.912488"><ele>735.3</ele></trkpt>
      <trkpt lat="46.188471" lon="9.912491"><ele>738.7</ele></trkpt>
      <trkpt lat="46.188554" lon="9.912498"><ele>740.8</ele></trkpt>
      <trkpt lat="46.188669" lon="9.912499"><ele>744.4</ele></trkpt>
      <trkpt lat="46.188756" lon="9.912508"><ele>746.9</ele></trkpt>
      <trkpt lat="46.188858" lon="9.912494"><ele>747.7</ele></trkpt>
      <trkpt lat="46.188972" lon="9.912499"><ele>751.6</ele></trkpt>
      <trkpt lat="46.189065" lon="9.912492"><ele>753.8</ele></trkpt>
      <trkpt lat="46.189155" lon="9.912497"><ele>756.0</ele></trkpt>
      <trkpt lat="46.189269" lon="9.912507"><ele>758.3</ele></trkpt>
      <trkpt lat="46.189369" lon="9.912510"><ele>760.3</ele></trkpt>
      <trkpt lat="46.189462" lon="9.912524"><ele>762.0</ele></trkpt>
      <trkpt lat="46.189570" lon="9.912531"><ele>765.1</ele></trkpt>
      <trkpt lat="46.189657" lon="9.912563"><ele>767.9</ele></trkpt>
      <trkpt lat="46.189771" lon="9.912577"><ele>770.4</ele></trkpt>
      <trkpt lat="46.189876" lon="9.912596"><ele>771.4</ele></trkpt>
      <trkpt lat="46.189974" lon="9.912634"><ele>774.5</ele></trkpt>
      <trkpt lat="46.190060" lon="9.912655"><ele>776.3</ele></trkpt>
      <trkpt lat="46.190173" lon="9.912699"><ele>778.7</ele></trkpt>
      <trkpt lat="46.190265" lon="9.912739"><ele>781.1</ele></trkpt>
      <trkpt lat="46.190370" lon="9.912800"><ele>782.7</ele></trkpt>
      <trkpt lat="46.190472" lon="9.912845"><ele>785.9</ele></trkpt>
      <trkpt lat="46.190578" lon="9.912918"><ele>787.7</ele></trkpt>
      <trkpt lat="46.190678" lon="9.912986"><ele>789.5</ele></trkpt>
      <trkpt lat="46.190765" lon="9.913051"><ele>792.0</ele></trkpt>
      <trkpt lat="46.190870" lon="9.913134"><ele>794.7</ele></trkpt>
      <trkpt lat="46.190965" lon="9.913217"><ele>796.1</ele></trkpt>
      <trkpt lat="46.191069" lon="9.913295"><ele>799.3</ele></trkpt>
      <trkpt lat="46.191177" lon="9.913403"><ele>799.8</ele></trkpt>
      <trkpt lat="46.191277" lon="9.913495"><ele>803.1</ele></trkpt>
      <trkpt lat="46.191378" lon="9.913606"><ele>804.7</ele></trkpt>
      <trkpt lat="46.191472" lon="9.913702"><ele>806.4</ele></trkpt>
      <trkpt lat="46.191567" lon="9.913823"><ele>809.4</ele></trkpt>
      <trkpt lat="46.191672" lon="9.913941"><ele>810.9</ele></trkpt>
      <trkpt lat="46.191769" lon="9.914054"><ele>812.9</ele></trkpt>
      <trkpt lat="46.191866" lon="9.914187"><ele>814.1</ele></trkpt>
      <trkpt lat="46.191966" lon="9.914315"><ele>815.8</ele></trkpt>
      <trkpt lat="46.192077" lon="9.914430"><ele>818.4</ele></trkpt>
      <trkpt lat="46.192183" lon="9.914571"><ele>820.9</ele></trkpt>
      <trkpt lat="46.192281" lon="9.914696"><ele>822.7</ele></trkpt>
      <trkpt lat="46.192372" lon="9.914841"><ele>824.5</ele></trkpt>
      <trkpt lat="46.192465" lon="9.914974"><ele>826.4</ele></trkpt>
      <trkpt lat="46.192566" lon="9.915093"><ele>828.4</ele></trkpt>
      <trkpt lat="46.192666" lon="9.915237"><ele>830.0</ele></trkpt>
      <trkpt lat="46.192768" lon="9.915374"><ele>831.7</ele></trkpt>
      <trkpt lat="46.192874" lon="9.915501"><ele>833.4</ele></trkpt>
      <trkpt lat="46.192978" lon="9.915623"><ele>835.8</ele></trkpt>
      <trkpt lat="46.193072" lon="9.915752"><ele>836.9</ele></trkpt>
      <trkpt lat="46.193178" lon="9.915877"><ele>838.9</ele></trkpt>
      <trkpt lat="46.193279" lon="9.916005"><ele>841.4</ele></trkpt>
      <trkpt lat="46.193382" lon="9.916124"><ele>841.3</ele></trkpt>
      <trkpt lat="46.193487" lon="9.916237"><ele>843.1</ele></trkpt>
      <trkpt lat="46.193575" lon="9.916341"><ele>845.4</ele></trkpt>
      <trkpt lat="46.193689" lon="9.916445"><ele>847.5</ele></trkpt>
      <trkpt lat="46.193772" lon="9.916564"><ele>849.0</ele></trkpt>
      <trkpt lat="46.193883" lon="9.916655"><ele>849.6</ele></trkpt>
      <trkpt lat="46.193972" lon="9.916749"><ele>851.7</ele></trkpt>
      <trkpt lat="46.194080" lon="9.916821"><ele>853.5</ele></trkpt>
      <trkpt lat="46.194176" lon="9.916916"><ele>855.8</ele></trkpt>
      <trkpt lat="46.194283" lon="9.916981"><ele>857.2</ele></trkpt>
      <trkpt lat="46.194382" lon="9.917058"><ele>857.1</ele></trkpt>
      <trkpt lat="46.194477" lon="9.917119"><ele>859.9</ele></trkpt>
      <trkpt lat="46.194584" lon="9.917179"><ele>861.0</ele></trkpt>
      <trkpt lat="46.194672" lon="9.917220"><ele>863.0</ele></trkpt>
      <trkpt lat="46.194776" lon="9.917283"><ele>864.4</ele></trkpt>
      <trkpt lat="46.194885" lon="9.917309"><ele>865.3</ele></trkpt>
      <trkpt lat="46.194973" lon="9.917351"><ele>866.5</ele></trkpt>
      <trkpt lat="46.195079" lon="9.917395"><ele>866.7</ele></trkpt>
      <trkpt lat="46.195189" lon="9.917416"><ele>869.2</ele></trkpt>
      <trkpt lat="46.195293" lon="9.917433"><ele>869.8</ele></trkpt>
      <trkpt lat="46.195391" lon="9.917455"><ele>870.7</ele></trkpt>
      <trkpt lat="46.195481" lon="9.917474"><ele>872.4</ele></trkpt>
      <trkpt lat="46.195584" lon="9.917470"><ele>874.5</ele></trkpt>
      <trkpt lat="46.195681" lon="9.917498"><ele>874.8</ele></trkpt>
      <trkpt lat="46.195782" lon="9.917495"><ele>877.0</ele></trkpt>
      <trkpt lat="46.195877" lon="9.917492"><ele>877.7</ele></trkpt>
      <trkpt lat="46.195995" lon="9.917490"><ele>878.9</ele></trkpt>
      <trkpt lat="46.196086" lon="9.917498"><ele>878.3</ele></trkpt>
      <trkpt lat="46.196190" lon="9.917504"><ele>880.4</ele></trkpt>
      <trkpt lat="46.196279" lon="9.917504"><ele>882.0</ele></trkpt>
      <trkpt lat="46.196395" lon="9.917506"><ele>883.2</ele></trkpt>
      <trkpt lat="46.196490" lon="9.917496"><ele>883.1</ele></trkpt>
      <trkpt lat="46.196590" lon="9.917505"><ele>883.7</ele></trkpt>
      <trkpt lat="46.196680" lon="9.917497"><ele>885.4</ele></trkpt>
      <trkpt lat="46.196781" lon="9.917517"><ele>886.0</ele></trkpt>
      <trkpt lat="46.196896" lon="9.917517"><ele>887.2</ele></trkpt>
      <trkpt lat="46.196996" lon="9.917519"><ele>888.0</ele></trkpt>
      <trkpt lat="46.197081" lon="9.917549"><ele>889.1</ele></trkpt>
      <trkpt lat="46.197189" lon="9.917563"><ele>888.4</ele></trkpt>
      <trkpt lat="46.197291" lon="9.917581"><ele>889.6</ele></trkpt>
      <trkpt lat="46.197391" lon="9.917598"><ele>890.0</ele></trkpt>
      <trkpt lat="46.197484" lon="9.917641"><ele>891.5</ele></trkpt>
      <trkpt lat="46.197591" lon="9.917668"><ele>891.3</ele></trkpt>
      <trkpt lat="46.197700" lon="9.917706"><ele>892.3</ele></trkpt>
      <trkpt lat="46.197796" lon="9.917763"><ele>893.8</ele></trkpt>
      <trkpt lat="46.197895" lon="9.917817"><ele>893.7</ele></trkpt>
      <trkpt lat="46.197988" lon="9.917876"><ele>894.3</ele></trkpt>
      <trkpt lat="46.198090" lon="9.917927"><ele>894.6</ele></trkpt>
      <trkpt lat="46.198204" lon="9.918004"><ele>895.8</ele></trkpt>
      <trkpt lat="46.198289" lon="9.918080"><ele>895.2</ele></trkpt>
      <trkpt lat="46.198403" lon="9.918146"><ele>896.3</ele></trkpt>
      <trkpt lat="46.198489" lon="9.918235"><ele>896.8</ele></trkpt>
      <trkpt lat="46.198595" lon="9.918333"><ele>896.6</ele></trkpt>
      <trkpt lat="46.198694" lon="9.918417"><ele>898.0</ele></trkpt>
      <trkpt lat="46.198801" lon="9.918521"><ele>897.2</ele></trkpt>
      <trkpt lat="46.198899" lon="9.918625"><ele>898.8</ele></trkpt>
      <trkpt lat="46.198990" lon="9.918739"><ele>898.1</ele></trkpt>
      <trkpt lat="46.199091" lon="9.918842"><ele>898.4</ele></trkpt>
      <trkpt lat="46.199207" lon="9.918972"><ele>899.1</ele></trkpt>
      <trkpt lat="46.199288" lon="9.919085"><ele>899.8</ele></trkpt>
      <trkpt lat="46.199403" lon="9.919215"><ele>899.8</ele></trkpt>
      <trkpt lat="46.199493" lon="9.919339"><ele>899.7</ele></trkpt>
      <trkpt lat="46.199599" lon="9.919474"><ele>899.9</ele></trkpt>
      <trkpt lat="46.199698" lon="9.919598"><ele>899.2</ele></trkpt>
      <trkpt lat="46.199809" lon="9.919735"><ele>899.8</ele></trkpt>
      <trkpt lat="46.199909" lon="9.919869"><ele>901.0</ele></trkpt>
      <trkpt lat="46.200005" lon="9.920003"><ele>899.6</ele></trkpt>
    </trkseg>
  </trk>
</gpx>
