<?xml version="1.0" encoding="UTF-8"?>
<gpx version="1.1" creator="trails-of-piateda fixtures" xmlns="http://www.topografix.com/GPX/1/1">
  <metadata>
    <name>Anello di Piateda Alta</name>
  </metadata>
  <trk>
    <name>Anello di Piateda Alta</name>
    <trkseg>
      <trkpt lat="46.151991" lon="9.952004"><ele>649.9</ele></trkpt>
      <trkpt lat="46.152089" lon="9.952047"><ele>653.1</ele></trkpt>
      <trkpt lat="46.152162" lon="9.952110"><ele>655.8</ele></trkpt>
      <trkpt lat="46.152249" lon="9.952164"><ele>658.6</ele></trkpt>
      <trkpt lat="46.152341" lon="9.952219"><ele>663.1</ele></trkpt>
      <trkpt lat="46.152425" lon="9.952272"><ele>666.1</ele></trkpt>
      <trkpt lat="46.152520" lon="9.952309"><ele>668.9</ele></trkpt>
      <trkpt lat="46.152606" lon="9.952366"><ele>670.9</ele></trkpt>
      <trkpt lat="46.152691" lon="9.952412"><ele>675.9</ele></trkpt>
      <trkpt lat="46.152783" lon="9.952452"><ele>678.5</ele></trkpt>
      <trkpt lat="46.152872" lon="9.952481"><ele>681.6</ele></trkpt>
      <trkpt lat="46.152956" lon="9.952516"><ele>684.2</ele></trkpt>
      <trkpt lat="46.153060" lon="9.952570"><ele>687.6</ele></trkpt>
      <trkpt lat="46.153152" lon="9.952603"><ele>690.5</ele></trkpt>
      <trkpt lat="46.153241" lon="9.952621"><ele>693.4</ele></trkpt>
      <trkpt lat="46.153335" lon="9.952666"><ele>696.2</ele></trkpt>
      <trkpt lat="46.153432" lon="9.952687"><ele>699.8</ele></trkpt>
      <trkpt lat="46.153528" lon="9.952719"><ele>702.0</ele></trkpt>
      <trkpt lat="46.153624" lon="9.952739"><ele>705.1</ele></trkpt>
      <trkpt lat="46.153722" lon="9.952765"><ele>708.5</ele></trkpt>
      <trkpt lat="46.153819" lon="9.952776"><ele>711.5</ele></trkpt>
      <trkpt lat="46.153897" lon="9.952779"><ele>713.9</ele></trkpt>
      <trkpt lat="46.153998" lon="9.952807"><ele>716.7</ele></trkpt>
      <trkpt lat="46.154097" lon="9.952805"><ele>719.5</ele></trkpt>
      <trkpt lat="46.154192" lon="9.952818"><ele>722.7</ele></trkpt>
      <trkpt lat="46.154299" lon="9.952814"><ele>725.2</ele></trkpt>
      <trkpt lat="46.154392" lon="9.952827"><ele>726.7</ele></trkpt>
      <trkpt lat="46.154476" lon="9.952818"><ele>730.6</ele></trkpt>
      <trkpt lat="46.154582" lon="9.952821"><ele>733.8</ele></trkpt>
      <trkpt lat="46.154685" lon="9.952818"><ele>735.6</ele></trkpt>
      <trkpt lat="46.154781" lon="9.952805"><ele>738.6</ele></trkpt>
      <trkpt lat="46.154871" lon="9.952781"><ele>741.4</ele></trkpt>
      <trkpt lat="46.154966" lon="9.952766"><ele>742.3</ele></trkpt>
      <trkpt lat="46.155061" lon="9.952751"><ele>744.9</ele></trkpt>
      <trkpt lat="46.155146" lon="9.952733"><ele>748.5</ele></trkpt>
      <trkpt lat="46.155249" lon="9.952692"><ele>750.9</ele></trkpt>
      <trkpt lat="46.155348" lon="9.952662"><ele>751.7</ele></trkpt>
      <trkpt lat="46.155449" lon="9.952636"><ele>754.8</ele></trkpt>
      <trkpt lat="46.155523" lon="9.952599"><ele>756.3</ele></trkpt>
      <trkpt lat="46.155628" lon="9.952570"><ele>759.8</ele></trkpt>
      <trkpt lat="46.155724" lon="9.952530"><ele>760.5</ele></trkpt>
      <trkpt lat="46.155803" lon="9.952476"><ele>763.6</ele></trkpt>
      <trkpt lat="46.155903" lon="9.952439"><ele>765.8</ele></trkpt>
      <trkpt lat="46.156001" lon="9.952382"><ele>766.6</ele></trkpt>
      <trkpt lat="46.156075" lon="9.952342"><ele>769.1</ele></trkpt>
      <trkpt lat="46.156169" lon="9.952276"><ele>771.3</ele></trkpt>
      <trkpt lat="46.156261" lon="9.952213"><ele>772.1</ele></trkpt>
      <trkpt lat="46.156351" lon="9.952154"><ele>774.6</ele></trkpt>
      <trkpt lat="46.156428" lon="9.952089"><ele>777.6</ele></trkpt>
      <trkpt lat="46.156508" lon="9.952014"><ele>777.7</ele></trkpt>
      <trkpt lat="46.156607" lon="9.951944"><ele>780.5</ele></trkpt>
      <trkpt lat="46.156681" lon="9.951884"><ele>780.7</ele></trkpt>
      <trkpt lat="46.156760" lon="9.951798"><ele>782.4</ele></trkpt>
      <trkpt lat="46.156843" lon="9.951714"><ele>784.1</ele></trkpt>
      <trkpt lat="46.156925" lon="9.951630"><ele>786.1</ele></trkpt>
      <trkpt lat="46.157012" lon="9.951553"><ele>788.3</ele></trkpt>
      <trkpt lat="46.157075" lon="9.951476"><ele>788.5</ele></trkpt>
      <trkpt lat="46.157149" lon="9.951373"><ele>790.7</ele></trkpt>
      <trkpt lat="46.157223" lon="9.951276"><ele>791.2</ele></trkpt>
      <trkpt lat="46.157298" lon="9.951200"><ele>792.8</ele></trkpt>
      <trkpt lat="46.157375" lon="9.951086"><ele>794.5</ele></trkpt>
      <trkpt lat="46.157453" lon="9.950984"><ele>794.6</ele></trkpt>
      <trkpt lat="46.157502" lon="9.950883"><ele>796.0</ele></trkpt>
      <trkpt lat="46.157586" lon="9.950791"><ele>797.1</ele></trkpt>
      <trkpt lat="46.157651" lon="9.950682"><ele>798.3</ele></trkpt>
      <trkpt lat="46.157715" lon="9.950580"><ele>799.1</ele></trkpt>
      <trkpt lat="46.157771" lon="9.950457"><ele>800.7</ele></trkpt>
      <trkpt lat="46.157824" lon="9.950349"><ele>799.9</ele></trkpt>
      <trkpt lat="46.157884" lon="9.950235"><ele>801.6</ele></trkpt>
      <trkpt lat="46.157940" lon="9.950125"><ele>802.7</ele></trkpt>
      <trkpt lat="46.157999" lon="9.950003"><ele>802.3</ele></trkpt>
      <trkpt lat="46.158061" lon="9.949888"><ele>803.3</ele></trkpt>
      <trkpt lat="46.158108" lon="9.949766"><ele>804.7</ele></trkpt>
      <trkpt lat="46.158157" lon="9.949635"><ele>805.1</ele></trkpt>
      <trkpt lat="46.158213" lon="9.949509"><ele>804.5</ele></trkpt>
      <trkpt lat="46.158256" lon="9.949391"><ele>805.9</ele></trkpt>
      <trkpt lat="46.158310" lon="9.949267"><ele>806.7</ele></trkpt>
      <trkpt lat="46.158341" lon="9.949128"><ele>805.5</ele></trkpt>
      <trkpt lat="46.158393" lon="9.948994"><ele>807.0</ele></trkpt>
      <trkpt lat="46.158425" lon="9.948878"><ele>807.4</ele></trkpt>
      <trkpt lat="46.158477" lon="9.948733"><ele>806.7</ele></trkpt>
      <trkpt lat="46.158510" lon="9.948604"><ele>808.2</ele></trkpt>
      <trkpt lat="46.158534" lon="9.948477"><ele>808.4</ele></trkpt>
      <trkpt lat="46.158585" lon="9.948332"><ele>808.6</ele></trkpt>
      <trkpt lat="46.158614" lon="9.948206"><ele>807.8</ele></trkpt>
      <trkpt lat="46.158635" lon="9.948058"><ele>808.2</ele></trkpt>
      <trkpt lat="46.158671" lon="9.947931"><ele>808.3</ele></trkpt>
      <trkpt lat="46.158706" lon="9.947784"><ele>808.5</ele></trkpt>
      <trkpt lat="46.158731" lon="9.947658"><ele>809.0</ele></trkpt>
      <trkpt lat="46.158759" lon="9.947528"><ele>808.7</ele></trkpt>
      <trkpt lat="46.158771" lon="9.947371"><ele>808.1</ele></trkpt>
      <trkpt lat="46.158796" lon="9.947234"><ele>808.0</ele></trkpt>
      <trkpt lat="46.158819" lon="9.947111"><ele>807.2</ele></trkpt>
      <trkpt lat="46.158834" lon="9.946967"><ele>806.9</ele></trkpt>
      <trkpt lat="46.158848" lon="9.946819"><ele>807.9</ele></trkpt>
      <trkpt lat="46.158865" lon="9.946685"><ele>807.4</ele></trkpt>
      <trkpt lat="46.158875" lon="9.946551"><ele>806.1</ele></trkpt>
      <trkpt lat="46.158886" lon="9.946411"><ele>806.4</ele></trkpt>
      <trkpt lat="46.158904" lon="9.946267"><ele>806.2</ele></trkpt>
      <trkpt lat="46.158916" lon="9.946143"><ele>806.6</ele></trkpt>
      <trkpt lat="46.158938" lon="9.945999"><ele>806.8</ele></trkpt>
      <trkpt lat="46.158943" lon="9.945866"><ele>806.1</ele></trkpt>
      <trkpt lat="46.158950" lon="9.945733"><ele>805.1</ele></trkpt>
      <trkpt lat="46.158946" lon="9.945600"><ele>804.6</ele></trkpt>
      <trkpt lat="46.158952" lon="9.945452"><ele>805.0</ele></trkpt>
      <trkpt lat="46.158959" lon="9.945326"><ele>804.2</ele></trkpt>
      <trkpt lat="46.158962" lon="9.945184"><ele>802.8</ele></trkpt>
      <trkpt lat="46.158966" lon="9.945047"><ele>803.9</ele></trkpt>
      <trkpt lat="46.158977" lon="9.944923"><ele>802.9</ele></trkpt>
      <trkpt lat="46.158975" lon="9.944778"><ele>801.9</ele></trkpt>
      <trkpt lat="46.158969" lon="9.944655"><ele>802.3</ele></trkpt>
      <trkpt lat="46.158971" lon="9.944524"><ele>801.1</ele></trkpt>
      <trkpt lat="46.158964" lon="9.944400"><ele>800.9</ele></trkpt>
      <trkpt lat="46.158958" lon="9.944268"><ele>800.3</ele></trkpt>
      <trkpt lat="46.158959" lon="9.944143"><ele>801.0</ele></trkpt>
      <trkpt lat="46.158961" lon="9.944005"><ele>798.9</ele></trkpt>
      <trkpt lat="46.158949" lon="9.943873"><ele>799.3</ele></trkpt>
      <trkpt lat="46.158943" lon="9.943758"><ele>798.5</ele></trkpt>
      <trkpt lat="46.158953" lon="9.943632"><ele>798.3</ele></trkpt>
      <trkpt lat="46.158938" lon="9.943500"><ele>797.2</ele></trkpt>
      <trkpt lat="46.158935" lon="9.943371"><ele>798.6</ele></trkpt>
      <trkpt lat="46.158923" lon="9.943254"><ele>796.5</ele></trkpt>
      <trkpt lat="46.158929" lon="9.943131"><ele>796.9</ele></trkpt>
      <trkpt lat="46.158921" lon="9.943009"><ele>795.7</ele></trkpt>
      <trkpt lat="46.158906" lon="9.942887"><ele>795.0</ele></trkpt>
      <trkpt lat="46.158914" lon="9.942775"><ele>794.8</ele></trkpt>
      <trkpt lat="46.158895" lon="9.942660"><ele>795.7</ele></trkpt>
      <trkpt lat="46.158886" lon="9.942534"><ele>795.5</ele></trkpt>
      <trkpt lat="46.158885" lon="9.942421"><ele>795.2</ele></trkpt>
      <trkpt lat="46.158888" lon="9.942314"><ele>793.7</ele></trkpt>
      <trkpt lat="46.158881" lon="9.942196"><ele>793.1</ele></trkpt>
      <trkpt lat="46.158879" lon="9.942073"><ele>793.6</ele></trkpt>
      <trkpt lat="46.158867" lon="9.941971"><ele>792.8</ele></trkpt>
      <trkpt lat="46.158856" lon="9.941854"><ele>792.3</ele></trkpt>
      <trkpt lat="46.158859" lon="9.941733"><ele>792.6</ele></trkpt>
      <trkpt lat="46.158838" lon="9.941618"><ele>792.0</ele></trkpt>
      <trkpt lat="46.158844" lon="9.941519"><ele>791.7</ele></trkpt>
      <trkpt lat="46.158829" lon="9.941409"><ele>792.2</ele></trkpt>
      <trkpt lat="46.158820" lon="9.941293"><ele>792.0</ele></trkpt>
      <trkpt lat="46.158826" lon="9.941178"><ele>791.9</ele></trkpt>
      <trkpt lat="46.158820" lon="9.941076"><ele>791.0</ele></trkpt>
      <trkpt lat="46.158815" lon="9.940976"><ele>790.1</ele></trkpt>
      <trkpt lat="46.158807" lon="9.940857"><ele>789.7</ele></trkpt>
      <trkpt lat="46.158802" lon="9.940752"><ele>790.8</ele></trkpt>
      <trkpt lat="46.158811" lon="9.940635"><ele>790.2</ele></trkpt>
      <trkpt lat="46.158805" lon="9.940538"><ele>790.1</ele></trkpt>
      <trkpt lat="46.158808" lon="9.940428"><ele>791.0</ele></trkpt>
      <trkpt lat="46.158795" lon="9.940312"><ele>790.6</ele></trkpt>
      <trkpt lat="46.158799" lon="9.940213"><ele>790.1</ele></trkpt>
      <trkpt lat="46.158801" lon="9.940106"><ele>790.7</ele></trkpt>
      <trkpt lat="46.158807" lon="9.939992"><ele>790.1</ele></trkpt>
      <trkpt lat="46.158808" lon="9.939887"><ele>790.9</ele></trkpt>
      <trkpt lat="46.158801" lon="9.939791"><ele>790.1</ele></trkpt>
      <trkpt lat="46.158799" lon="9.939674"><ele>789.4</ele></trkpt>
      <trkpt lat="46.158805" lon="9.939565"><ele>790.4</ele></trkpt>
      <trkpt lat="46.158812" lon="9.939472"><ele>789.4</ele></trkpt>
      <trkpt lat="46.158807" lon="9.939362"><ele>790.0</ele></trkpt>
      <trkpt lat="46.158811" lon="9.939242"><ele>791.2</ele></trkpt>
      <trkpt lat="46.158813" lon="9.939141"><ele>789.8</ele></trkpt>
      <trkpt lat="46.158822" lon="9.939042"><ele>791.5</ele></trkpt>
      <trkpt lat="46.158820" lon="9.938922"><ele>791.1</ele></trkpt>
      <trkpt lat="46.158818" lon="9.938824"><ele>791.3</ele></trkpt>
      <trkpt lat="46.158823" lon="9.938707"><ele>790.9</ele></trkpt>
      <trkpt lat="46.158835" lon="9.938602"><ele>791.2</ele></trkpt>
      <trkpt lat="46.158836" lon="9.938495"><ele>792.7</ele></trkpt>
      <trkpt lat="46.158853" lon="9.938366"><ele>791.3</ele></trkpt>
      <trkpt lat="46.158845" lon="9.938262"><ele>791.5</ele></trkpt>
      <trkpt lat="46.158853" lon="9.938143"><ele>792.0</ele></trkpt>
      <trkpt lat="46.158867" lon="9.938032"><ele>792.7</ele></trkpt>
      <trkpt lat="46.158868" lon="9.937919"><ele>794.0</ele></trkpt>
      <trkpt lat="46.158885" lon="9.937802"><ele>793.3</ele></trkpt>
      <trkpt lat="46.158882" lon="9.937698"><ele>794.5</ele></trkpt>
      <trkpt lat="46.158892" lon="9.937585"><ele>795.1</ele></trkpt>
      <trkpt lat="46.158904" lon="9.937455"><ele>795.3</ele></trkpt>
      <trkpt lat="46.158904" lon="9.937345"><ele>795.8</ele></trkpt>
      <trkpt lat="46.158912" lon="9.937215"><ele>795.8</ele></trkpt>
      <trkpt lat="46.158904" lon="9.937109"><ele>795.8</ele></trkpt>
      <trkpt lat="46.158924" lon="9.936982"><ele>796.7</ele></trkpt>
      <trkpt lat="46.158930" lon="9.936856"><ele>796.8</ele></trkpt>
      <trkpt lat="46.158930" lon="9.936740"><ele>796.3</ele></trkpt>
      <trkpt lat="46.158933" lon="9.936629"><ele>797.4</ele></trkpt>
      <trkpt lat="46.158936" lon="9.936501"><ele>798.0</ele></trkpt>
      <trkpt lat="46.158949" lon="9.936364"><ele>798.1</ele></trkpt>
      <trkpt lat="46.158958" lon="9.936245"><ele>798.3</ele></trkpt>
      <trkpt lat="46.158966" lon="9.936124"><ele>799.1</ele></trkpt>
      <trkpt lat="46.158969" lon="9.935999"><ele>799.2</ele></trkpt>
      <trkpt lat="46.158969" lon="9.935863"><ele>800.9</ele></trkpt>
      <trkpt lat="46.158964" lon="9.935745"><ele>801.7</ele></trkpt>
      <trkpt lat="46.158961" lon="9.935602"><ele>801.3</ele></trkpt>
      <trkpt lat="46.158973" lon="9.935485"><ele>801.9</ele></trkpt>
      <trkpt lat="46.158966" lon="9.935349"><ele>802.1</ele></trkpt>
      <trkpt lat="46.158973" lon="9.935218"><ele>801.6</ele></trkpt>
      <trkpt lat="46.158972" lon="9.935083"><ele>802.8</ele></trkpt>
      <trkpt lat="46.158961" lon="9.934940"><ele>803.2</ele></trkpt>
      <trkpt lat="46.158972" lon="9.934810"><ele>802.8</ele></trkpt>
      <trkpt lat="46.158970" lon="9.934672"><ele>804.0</ele></trkpt>
      <trkpt lat="46.158964" lon="9.934552"><ele>804.7</ele></trkpt>
      <trkpt lat="46.158953" lon="9.934403"><ele>804.4</ele></trkpt>
      <trkpt lat="46.158946" lon="9.934275"><ele>805.8</ele></trkpt>
      <trkpt lat="46.158938" lon="9.934144"><ele>804.8</ele></trkpt>
      <trkpt lat="46.158935" lon="9.934004"><ele>806.3</ele></trkpt>
      <trkpt lat="46.158925" lon="9.933853"><ele>805.4</ele></trkpt>
      <trkpt lat="46.158898" lon="9.933720"><ele>806.2</ele></trkpt>
      <trkpt lat="46.158894" lon="9.933592"><ele>806.8</ele></trkpt>
      <trkpt lat="46.158886" lon="9.933455"><ele>806.7</ele></trkpt>
      <trkpt lat="46.158862" lon="9.933315"><ele>807.5</ele></trkpt>
      <trkpt lat="46.158851" lon="9.933173"><ele>808.0</ele></trkpt>
      <trkpt lat="46.158838" lon="9.933028"><ele>807.5</ele></trkpt>
      <trkpt lat="46.158804" lon="9.932892"><ele>808.2</ele></trkpt>
      <trkpt lat="46.158801" lon="9.932749"><ele>807.6</ele></trkpt>
      <trkpt lat="46.158771" lon="9.932613"><ele>807.1</ele></trkpt>
      <trkpt lat="46.158745" lon="9.932489"><ele>809.0</ele></trkpt>
      <trkpt lat="46.158718" lon="9.932341"><ele>808.4</ele></trkpt>
      <trkpt lat="46.158698" lon="9.932203"><ele>807.4</ele></trkpt>
      <trkpt lat="46.158679" lon="9.932063"><ele>807.9</ele></trkpt>
      <trkpt lat="46.158635" lon="9.931930"><ele>808.1</ele></trkpt>
      <trkpt lat="46.158617" lon="9.931792"><ele>808.4</ele></trkpt>
      <trkpt lat="46.158582" lon="9.931658"><ele>808.1</ele></trkpt>
      <trkpt lat="46.158549" lon="9.931525"><ele>808.0</ele></trkpt>
      <trkpt lat="46.158497" lon="9.931396"><ele>808.1</ele></trkpt>
      <trkpt lat="46.158468" lon="9.931262"><ele>806.9</ele></trkpt>
      <trkpt lat="46.158432" lon="9.931132"><ele>807.3</ele></trkpt>
      <trkpt lat="46.158384" lon="9.931000"><ele>805.8</ele></trkpt>
      <trkpt lat="46.158356" lon="9.930878"><ele>806.9</ele></trkpt>
      <trkpt lat="46.158294" lon="9.930752"><ele>806.7</ele></trkpt>
      <trkpt lat="46.158254" lon="9.930620"><ele>805.6</ele></trkpt>
      <trkpt lat="46.158212" lon="9.930489"><ele>805.4</ele></trkpt>
      <trkpt lat="46.158159" lon="9.930362"><ele>804.1</ele></trkpt>
      <trkpt lat="46.158109" lon="9.930232"><ele>804.7</ele></trkpt>
      <trkpt lat="46.158060" lon="9.930130"><ele>802.6</ele></trkpt>
      <trkpt lat="46.158007" lon="9.930005"><ele>803.6</ele></trkpt>
      <trkpt lat="46.157941" lon="9.929878"><ele>801.2</ele></trkpt>
      <trkpt lat="46.157895" lon="9.929763"><ele>800.7</ele></trkpt>
      <trkpt lat="46.157825" lon="9.929660"><ele>800.0</ele></trkpt>
      <trkpt lat="46.157766" lon="9.929537"><ele>799.6</ele></trkpt>
      <trkpt lat="46.157716" lon="9.929422"><ele>799.4</ele></trkpt>
      <trkpt lat="46.157640" lon="9.929317"><ele>798.2</ele></trkpt>
      <trkpt lat="46.157585" lon="9.929216"><ele>798.0</ele></trkpt>
      <trkpt lat="46.157505" lon="9.929106"><ele>795.4</ele></trkpt>
      <trkpt lat="46.157435" lon="9.929008"><ele>795.0</ele></trkpt>
      <trkpt lat="46.157378" lon="9.928905"><ele>794.0</ele></trkpt>
      <trkpt lat="46.157306" lon="9.928800"><ele>792.5</ele></trkpt>
      <trkpt lat="46.157227" lon="9.928714"><ele>792.2</ele></trkpt>
      <trkpt lat="46.157159" lon="9.928614"><ele>790.8</ele></trkpt>
      <trkpt lat="46.157081" lon="9.928541"><ele>789.4</ele></trkpt>
      <trkpt lat="46.156997" lon="9.928442"><ele>788.2</ele></trkpt>
      <trkpt lat="46.156919" lon="9.928355"><ele>786.1</ele></trkpt>
      <trkpt lat="46.156850" lon="9.928282"><ele>784.3</ele></trkpt>
      <trkpt lat="46.156772" lon="9.928199"><ele>782.3</ele></trkpt>
      <trkpt lat="46.156689" lon="9.928122"><ele>782.6</ele></trkpt>
      <trkpt lat="46.156603" lon="9.928051"><ele>780.8</ele></trkpt>
      <trkpt lat="46.156518" lon="9.927973"><ele>777.9</ele></trkpt>
      <trkpt lat="46.156433" lon="9.927913"><ele>777.6</ele></trkpt>
      <trkpt lat="46.156354" lon="9.927849"><ele>775.4</ele></trkpt>
      <trkpt lat="46.156254" lon="9.927775"><ele>773.7</ele></trkpt>
      <trkpt lat="46.156161" lon="9.927718"><ele>770.6</ele></trkpt>
      <trkpt lat="46.156087" lon="9.927675"><ele>769.0</ele></trkpt>
      <trkpt lat="46.155998" lon="9.927614"><ele>767.2</ele></trkpt>
      <trkpt lat="46.155908" lon="9.927559"><ele>764.9</ele></trkpt>
      <trkpt lat="46.155820" lon="9.927527"><ele>762.8</ele></trkpt>
      <trkpt lat="46.155716" lon="9.927482"><ele>761.6</ele></trkpt>
      <trkpt lat="46.155619" lon="9.927433"><ele>760.0</ele></trkpt>
      <trkpt lat="46.155530" lon="9.927392"><ele>756.8</ele></trkpt>
      <trkpt lat="46.155442" lon="9.927357"><ele>753.8</ele></trkpt>
      <trkpt lat="46.155344" lon="9.927325"><ele>751.6</ele></trkpt>
      <trkpt lat="46.155251" lon="9.927307"><ele>749.3</ele></trkpt>
      <trkpt lat="46.155149" lon="9.927265"><ele>748.4</ele></trkpt>
      <trkpt lat="46.155065" lon="9.927252"><ele>745.6</ele></trkpt>
      <trkpt lat="46.154960" lon="9.927234"><ele>743.3</ele></trkpt>
      <trkpt lat="46.154863" lon="9.927219"><ele>739.7</ele></trkpt>
      <trkpt lat="46.154764" lon="9.927196"><ele>738.7</ele></trkpt>
      <trkpt lat="46.154669" lon="9.927186"><ele>734.9</ele></trkpt>
      <trkpt lat="46.154571" lon="9.927177"><ele>731.9</ele></trkpt>
      <trkpt lat="46.154490" lon="9.927182"><ele>729.6</ele></trkpt>
      <trkpt lat="46.154389" lon="9.927178"><ele>727.2</ele></trkpt>
      <trkpt lat="46.154281" lon="9.927172"><ele>724.2</ele></trkpt>
      <trkpt lat="46.154190" lon="9.927185"><ele>722.0</ele></trkpt>
      <trkpt lat="46.154091" lon="9.927184"><ele>719.0</ele></trkpt>
      <trkpt lat="46.153997" lon="9.927193"><ele>716.9</ele></trkpt>
      <trkpt lat="46.153912" lon="9.927217"><ele>714.4</ele></trkpt>
      <trkpt lat="46.153807" lon="9.927226"><ele>710.2</ele></trkpt>
      <trkpt lat="46.153716" lon="9.927240"><ele>708.0</ele></trkpt>
      <trkpt lat="46.153611" lon="9.927266"><ele>705.4</ele></trkpt>
      <trkpt lat="46.153534" lon="9.927281"><ele>701.9</ele></trkpt>
      <trkpt lat="46.153427" lon="9.927314"><ele>699.8</ele></trkpt>
      <trkpt lat="46.153342" lon="9.927339"><ele>697.2</ele></trkpt>
      <trkpt lat="46.153237" lon="9.927364"><ele>692.4</ele></trkpt>
      <trkpt lat="46.153157" lon="9.927399"><ele>690.5</ele></trkpt>
      <trkpt lat="46.153051" lon="9.927434"><ele>687.3</ele></trkpt>
      <trkpt lat="46.152972" lon="9.927470"><ele>683.5</ele></trkpt>
      <trkpt lat="46.152883" lon="9.927504"><ele>681.8</ele></trkpt>
      <trkpt lat="46.152777" lon="9.927553"><ele>677.9</ele></trkpt>
      <trkpt lat="46.152698" lon="9.927596"><ele>674.2</ele></trkpt>
      <trkpt lat="46.152603" lon="9.927641"><ele>671.4</ele></trkpt>
      <trkpt lat="46.152521" lon="9.927680"><ele>669.7</ele></trkpt>
      <trkpt lat="46.152438" lon="9.927741"><ele>665.7</ele></trkpt>
      <trkpt lat="46.152348" lon="9.927793"><ele>663.5</ele></trkpt>
      <trkpt lat="46.152256" lon="9.927844"><ele>659.0</ele></trkpt>
      <trkpt lat="46.152169" lon="9.927888"><ele>655.4</ele></trkpt>
      <trkpt lat="46.152079" lon="9.927940"><ele>653.4</ele></trkpt>
      <trkpt lat="46.152007" lon="9.928008"><ele>650.2</ele></trkpt>
      <trkpt lat="46.151910" lon="9.928062"><ele>646.2</ele></trkpt>
      <trkpt lat="46.151843" lon="9.928107"><ele>643.0</ele></trkpt>
      <trkpt lat="46.151745" lon="9.928184"><ele>640.9</ele></trkpt>
      <trkpt lat="46.151669" lon="9.928232"><ele>636.7</ele></trkpt>
      <trkpt lat="46.151586" lon="9.928295"><ele>634.9</ele></trkpt>
      <trkpt lat="46.151518" lon="9.928363"><ele>631.1</ele></trkpt>
      <trkpt lat="46.151438" lon="9.928419"><ele>627.9</ele></trkpt>
      <trkpt lat="46.151353" lon="9.928497"><ele>625.0</ele></trkpt>
      <trkpt lat="46.151283" lon="9.928552"><ele>621.3</ele></trkpt>
      <trkpt lat="46.151204" lon="9.928612"><ele>619.6</ele></trkpt>
      <trkpt lat="46.151123" lon="9.928688"><ele>615.1</ele></trkpt>
      <trkpt lat="46.151053" lon="9.928762"><ele>613.0</ele></trkpt>
      <trkpt lat="46.150977" lon="9.928828"><ele>610.1</ele></trkpt>
      <trkpt lat="46.150910" lon="9.928893"><ele>606.5</ele></trkpt>
      <trkpt lat="46.150831" lon="9.928954"><ele>603.0</ele></trkpt>
      <trkpt lat="46.150758" lon="9.929024"><ele>600.8</ele></trkpt>
      <trkpt lat="46.150693" lon="9.929097"><ele>597.0</ele></trkpt>
      <trkpt lat="46.150620" lon="9.929165"><ele>595.1</ele></trkpt>
      <trkpt lat="46.150556" lon="9.929237"><ele>592.2</ele></trkpt>
      <trkpt lat="46.150492" lon="9.929301"><ele>588.7</ele></trkpt>
      <trkpt lat="46.150416" lon="9.929374"><ele>585.8</ele></trkpt>
      <trkpt lat="46.150355" lon="9.929435"><ele>584.2</ele></trkpt>
      <trkpt lat="46.150280" lon="9.929502"><ele>579.9</ele></trkpt>
      <trkpt lat="46.150223" lon="9.929564"><ele>577.5</ele></trkpt>
      <trkpt lat="46.150158" lon="9.929641"><ele>574.4</ele></trkpt>
      <trkpt lat="46.150091" lon="9.929705"><ele>573.1</ele></trkpt>
      <trkpt lat="46.150017" lon="9.929774"><ele>570.7</ele></trkpt>
      <trkpt lat="46.149947" lon="9.929849"><ele>566.2</ele></trkpt>
      <trkpt lat="46.149895" lon="9.929915"><ele>565.0</ele></trkpt>
      <trkpt lat="46.149833" lon="9.929967"><ele>563.0</ele></trkpt>
      <trkpt lat="46.149774" lon="9.930044"><ele>559.6</ele></trkpt>
      <trkpt lat="46.149707" lon="9.930109"><ele>557.2</ele></trkpt>
      <trkpt lat="46.149635" lon="9.930159"><ele>555.5</ele></trkpt>
      <trkpt lat="46.149587" lon="9.930221"><ele>552.5</ele></trkpt>
      <trkpt lat="46.149506" lon="9.930287"><ele>549.4</ele></trkpt>
      <trkpt lat="46.149462" lon="9.930350"><ele>546.7</ele></trkpt>
      <trkpt lat="46.149392" lon="9.930424"><ele>544.9</ele></trkpt>
      <trkpt lat="46.149326" lon="9.930474"><ele>543.5</ele></trkpt>
      <trkpt lat="46.149265" lon="9.930547"><ele>540.1</ele></trkpt>
      <trkpt lat="46.149201" lon="9.930601"><ele>538.4</ele></trkpt>
      <trkpt lat="46.149142" lon="9.930666"><ele>536.1</ele></trkpt>
      <trkpt lat="46.149088" lon="9.930728"><ele>534.5</ele></trkpt>
      <trkpt lat="46.149020" lon="9.930780"><ele>532.9</ele></trkpt>
      <trkpt lat="46.148972" lon="9.930831"><ele>531.0</ele></trkpt>
      <trkpt lat="46.148899" lon="9.930894"><ele>528.7</ele></trkpt>
      <trkpt lat="46.148841" lon="9.930947"><ele>526.9</ele></trkpt>
      <trkpt lat="46.148779" lon="9.931001"><ele>524.9</ele></trkpt>
      <trkpt lat="46.148724" lon="9.931064"><ele>522.8</ele></trkpt>
      <trkpt lat="46.148665" lon="9.931110"><ele>522.4</ele></trkpt>
      <trkpt lat="46.148608" lon="9.931167"><ele>519.5</ele></trkpt>
      <trkpt lat="46.148544" lon="9.931213"><ele>518.5</ele></trkpt>
      <trkpt lat="46.148471" lon="9.931281"><ele>517.4</ele></trkpt>
      <trkpt lat="46.148410" lon="9.931330"><ele>516.2</ele></trkpt>
      <trkpt lat="46.148346" lon="9.931367"><ele>513.5</ele></trkpt>
      <trkpt lat="46.148281" lon="9.931418"><ele>512.9</ele></trkpt>
      <trkpt lat="46.148220" lon="9.931471"><ele>511.6</ele></trkpt>
      <trkpt lat="46.148168" lon="9.931534"><ele>510.2</ele></trkpt>
      <trkpt lat="46.148099" lon="9.931578"><ele>508.2</ele></trkpt>
      <trkpt lat="46.148025" lon="9.931619"><ele>507.5</ele></trkpt>
      <trkpt lat="46.147963" lon="9.931676"><ele>506.8</ele></trkpt>
      <trkpt lat="46.147904" lon="9.931735"><ele>505.6</ele></trkpt>
      <trkpt lat="46.147829" lon="9.931766"><ele>503.4</ele></trkpt>
      <trkpt lat="46.147762" lon="9.931825"><ele>502.1</ele></trkpt>
      <trkpt lat="46.147699" lon="9.931874"><ele>501.6</ele></trkpt>
      <trkpt lat="46.147641" lon="9.931917"><ele>500.7</ele></trkpt>
      <trkpt lat="46.147572" lon="9.931965"><ele>500.3</ele></trkpt>
      <trkpt lat="46.147509" lon="9.932012"><ele>499.0</ele></trkpt>
      <trkpt lat="46.147440" lon="9.932072"><ele>499.3</ele></trkpt>
      <trkpt lat="46.147370" lon="9.932110"><ele>497.9</ele></trkpt>
      <trkpt lat="46.147300" lon="9.932174"><ele>497.0</ele></trkpt>
      <trkpt lat="46.147226" lon="9.932220"><ele>496.1</ele></trkpt>
      <trkpt lat="46.147159" lon="9.932259"><ele>496.2</ele></trkpt>
      <trkpt lat="46.147092" lon="9.932314"><ele>496.4</ele></trkpt>
      <trkpt lat="46.147018" lon="9.932369"><ele>495.7</ele></trkpt>
      <trkpt lat="46.146945" lon="9.932408"><ele>494.0</ele></trkpt>
      <trkpt lat="46.146871" lon="9.932475"><ele>493.8</ele></trkpt>
      <trkpt lat="46.146807" lon="9.932522"><ele>492.8</ele></trkpt>
      <trkpt lat="46.146733" lon="9.932576"><ele>493.7</ele></trkpt>
      <trkpt lat="46.146645" lon="9.932623"><ele>492.9</ele></trkpt>
      <trkpt lat="46.146576" lon="9.932675"><ele>493.0</ele></trkpt>
      <trkpt lat="46.146498" lon="9.932732"><ele>493.0</ele></trkpt>
      <trkpt lat="46.146425" lon="9.932789"><ele>491.6</ele></trkpt>
      <trkpt lat="46.146359" lon="9.932839"><ele>491.7</ele></trkpt>
      <trkpt lat="46.146278" lon="9.932902"><ele>492.0</ele></trkpt>
      <trkpt lat="46.146211" lon="9.932967"><ele>492.9</ele></trkpt>
      <trkpt lat="46.146128" lon="9.933029"><ele>492.1</ele></trkpt>
      <trkpt lat="46.146052" lon="9.933074"><ele>491.0</ele></trkpt>
      <trkpt lat="46.145983" lon="9.933154"><ele>491.2</ele></trkpt>
      <trkpt lat="46.145898" lon="9.933204"><ele>491.5</ele></trkpt>
      <trkpt lat="46.145827" lon="9.933275"><ele>491.0</ele></trkpt>
      <trkpt lat="46.145755" lon="9.933342"><ele>491.8</ele></trkpt>
      <trkpt lat="46.145685" lon="9.933403"><ele>492.4</ele></trkpt>
      <trkpt lat="46.145606" lon="9.933472"><ele>492.4</ele></trkpt>
      <trkpt lat="46.145521" lon="9.933550"><ele>492.1</ele></trkpt>
      <trkpt lat="46.145448" lon="9.933627"><ele>491.9</ele></trkpt>
      <trkpt lat="46.145368" lon="9.933682"><ele>492.5</ele></trkpt>
      <trkpt lat="46.145305" lon="9.933774"><ele>492.6</ele></trkpt>
      <trkpt lat="46.145212" lon="9.933848"><ele>493.3</ele></trkpt>
      <trkpt lat="46.145145" lon="9.933924"><ele>494.2</ele></trkpt>
      <trkpt lat="46.145063" lon="9.934008"><ele>495.1</ele></trkpt>
      <trkpt lat="46.145003" lon="9.934087"><ele>495.4</ele></trkpt>
      <trkpt lat="46.144917" lon="9.934164"><ele>494.2</ele></trkpt>
      <trkpt lat="46.144860" lon="9.934247"><ele>494.5</ele></trkpt>
      <trkpt lat="46.144770" lon="9.934332"><ele>495.3</ele></trkpt>
      <trkpt lat="46.144710" lon="9.934427"><ele>495.4</ele></trkpt>
      <trkpt lat="46.144640" lon="9.934506"><ele>497.1</ele></trkpt>
      <trkpt lat="46.144563" lon="9.934602"><ele>497.6</ele></trkpt>
      <trkpt lat="46.144486" lon="9.934694"><ele>497.6</ele></trkpt>
      <trkpt lat="46.144430" lon="9.934803"><ele>496.9</ele></trkpt>
      <trkpt lat="46.144356" lon="9.934886"><ele>497.8</ele></trkpt>
      <trkpt lat="46.144290" lon="9.934988"><ele>498.3</ele></trkpt>
      <trkpt lat="46.144219" lon="9.935090"><ele>498.9</ele></trkpt>
      <trkpt lat="46.144160" lon="9.935187"><ele>500.0</ele></trkpt>
      <trkpt lat="46.144089" lon="9.935305"><ele>500.0</ele></trkpt>
      <trkpt lat="46.144023" lon="9.935412"><ele>499.6</ele></trkpt>
      <trkpt lat="46.143963" lon="9.935507"><ele>501.5</ele></trkpt>
      <trkpt lat="46.143903" lon="9.935617"><ele>501.5</ele></trkpt>
      <trkpt lat="46.143847" lon="9.935730"><ele>501.1</ele></trkpt>
      <trkpt lat="46.143784" lon="9.935848"><ele>502.3</ele></trkpt>
      <trkpt lat="46.143727" lon="9.935959"><ele>502.4</ele></trkpt>
      <trkpt lat="46.143667" lon="9.936077"><ele>502.8</ele></trkpt>
      <trkpt lat="46.143602" lon="9.936208"><ele>503.7</ele></trkpt>
      <trkpt lat="46.143551" lon="9.936315"><ele>504.4</ele></trkpt>
      <trkpt lat="46.143499" lon="9.936432"><ele>503.6</ele></trkpt>
      <trkpt lat="46.143444" lon="9.936572"><ele>503.9</ele></trkpt>
      <trkpt lat="46.143406" lon="9.936690"><ele>505.3</ele></trkpt>
      <trkpt lat="46.143364" lon="9.936812"><ele>504.6</ele></trkpt>
      <trkpt lat="46.143308" lon="9.936952"><ele>505.1</ele></trkpt>
      <trkpt lat="46.143264" lon="9.937065"><ele>506.2</ele></trkpt>
      <trkpt lat="46.143222" lon="9.937209"><ele>506.9</ele></trkpt>
      <trkpt lat="46.143176" lon="9.937342"><ele>506.2</ele></trkpt>
      <trkpt lat="46.143141" lon="9.937469"><ele>506.8</ele></trkpt>
      <trkpt lat="46.143120" lon="9.937594"><ele>508.3</ele></trkpt>
      <trkpt lat="46.143075" lon="9.937733"><ele>508.0</ele></trkpt>
      <trkpt lat="46.143047" lon="9.937872"><ele>508.4</ele></trkpt>
      <trkpt lat="46.143003" lon="9.938016"><ele>507.6</ele></trkpt>
      <trkpt lat="46.142981" lon="9.938148"><ele>508.7</ele></trkpt>
      <trkpt lat="46.142960" lon="9.938277"><ele>508.4</ele></trkpt>
      <trkpt lat="46.142935" lon="9.938419"><ele>509.3</ele></trkpt>
      <trkpt lat="46.142914" lon="9.938569"><ele>509.3</ele></trkpt>
      <trkpt lat="46.142894" lon="9.938707"><ele>509.7</ele></trkpt>
      <trkpt lat="46.142868" lon="9.938844"><ele>509.4</ele></trkpt>
      <trkpt lat="46.142854" lon="9.938993"><ele>509.0</ele></trkpt>
      <trkpt lat="46.142839" lon="9.939144"><ele>510.2</ele></trkpt>
      <trkpt lat="46.142829" lon="9.939287"><ele>510.5</ele></trkpt>
      <trkpt lat="46.142822" lon="9.939417"><ele>508.9</ele></trkpt>
      <trkpt lat="46.142820" lon="9.939558"><ele>510.9</ele></trkpt>
      <trkpt lat="46.142799" lon="9.939709"><ele>510.7</ele></trkpt>
      <trkpt lat="46.142809" lon="9.939856"><ele>510.9</ele></trkpt>
      <trkpt lat="46.142800" lon="9.939992"><ele>509.4</ele></trkpt>
      <trkpt lat="46.142809" lon="9.940152"><ele>510.9</ele></trkpt>
      <trkpt lat="46.142808" lon="9.940279"><ele>510.5</ele></trkpt>
      <trkpt lat="46.142807" lon="9.940426"><ele>510.1</ele></trkpt>
      <trkpt lat="46.142813" lon="9.940578"><ele>509.5</ele></trkpt>
      <trkpt lat="46.142826" lon="9.940718"><ele>508.8</ele></trkpt>
      <trkpt lat="46.142832" lon="9.940868"><ele>510.6</ele></trkpt>
      <trkpt lat="46.142849" lon="9.941014"><ele>509.2</ele></trkpt>
      <trkpt lat="46.142876" lon="9.941141"><ele>509.0</ele></trkpt>
      <trkpt lat="46.142892" lon="9.941288"><ele>508.9</ele></trkpt>
      <trkpt lat="46.142913" lon="9.941427"><ele>509.2</ele></trkpt>
      <trkpt lat="46.142932" lon="9.941580"><ele>508.3</ele></trkpt>
      <trkpt lat="46.142951" lon="9.941715"><ele>508.6</ele></trkpt>
      <trkpt lat="46.142989" lon="9.941846"><ele>508.6</ele></trkpt>
      <trkpt lat="46.143011" lon="9.941991"><ele>508.0</ele></trkpt>
      <trkpt lat="46.143049" lon="9.942129"><ele>508.0</ele></trkpt>
      <trkpt lat="46.143068" lon="9.942268"><ele>508.3</ele></trkpt>
      <trkpt lat="46.143116" lon="9.942391"><ele>507.4</ele></trkpt>
      <trkpt lat="46.143149" lon="9.942527"><ele>507.9</ele></trkpt>
      <trkpt lat="46.143176" lon="9.942666"><ele>505.6</ele></trkpt>
      <trkpt lat="46.143220" lon="9.942805"><ele>507.1</ele></trkpt>
      <trkpt lat="46.143268" lon="9.942924"><ele>506.1</ele></trkpt>
      <trkpt lat="46.143306" lon="9.943055"><ele>506.1</ele></trkpt>
      <trkpt lat="46.143365" lon="9.943175"><ele>505.7</ele></trkpt>
      <trkpt lat="46.143395" lon="9.943310"><ele>505.1</ele></trkpt>
      <trkpt lat="46.143457" lon="9.943426"><ele>504.3</ele></trkpt>
      <trkpt lat="46.143512" lon="9.943552"><ele>504.3</ele></trkpt>
      <trkpt lat="46.143553" lon="9.943670"><ele>503.9</ele></trkpt>
      <trkpt lat="46.143616" lon="9.943800"><ele>502.8</ele></trkpt>
      <trkpt lat="46.143656" lon="9.943922"><ele>502.7</ele></trkpt>
      <trkpt lat="46.143717" lon="9.944041"><ele>501.5</ele></trkpt>
      <trkpt lat="46.143776" lon="9.944147"><ele>502.5</ele></trkpt>
      <trkpt lat="46.143841" lon="9.944267"><ele>502.2</ele></trkpt>
      <trkpt lat="46.143890" lon="9.944381"><ele>500.8</ele></trkpt>
      <trkpt lat="46.143954" lon="9.944477"><ele>500.6</ele></trkpt>
      <trkpt lat="46.144020" lon="9.944597"><ele>500.9</ele></trkpt>
      <trkpt lat="46.144082" lon="9.944695"><ele>499.9</ele></trkpt>
      <trkpt lat="46.144155" lon="9.944813"><ele>500.0</ele></trkpt>
      <trkpt lat="46.144213" lon="9.944901"><ele>497.8</ele></trkpt>
      <trkpt lat="46.144285" lon="9.945008"><ele>498.2</ele></trkpt>
      <trkpt lat="46.144357" lon="9.945116"><ele>498.0</ele></trkpt>
      <trkpt lat="46.144430" lon="9.945204"><ele>497.3</ele></trkpt>
      <trkpt lat="46.144488" lon="9.945301"><ele>496.9</ele></trkpt>
      <trkpt lat="46.144552" lon="9.945385"><ele>497.6</ele></trkpt>
      <trkpt lat="46.144628" lon="9.945479"><ele>496.4</ele></trkpt>
      <trkpt lat="46.144704" lon="9.945567"><ele>496.7</ele></trkpt>
      <trkpt lat="46.144774" lon="9.945670"><ele>495.5</ele></trkpt>
      <trkpt lat="46.144856" lon="9.945745"><ele>496.1</ele></trkpt>
      <trkpt lat="46.144916" lon="9.945827"><ele>494.1</ele></trkpt>
      <trkpt lat="46.144989" lon="9.945928"><ele>494.5</ele></trkpt>
      <trkpt lat="46.145068" lon="9.946007"><ele>494.4</ele></trkpt>
      <trkpt lat="46.145140" lon="9.946089"><ele>493.0</ele></trkpt>
      <trkpt lat="46.145224" lon="9.946149"><ele>493.3</ele></trkpt>
      <trkpt lat="46.145304" lon="9.946235"><ele>492.5</ele></trkpt>
      <trkpt lat="46.145370" lon="9.946318"><ele>493.0</ele></trkpt>
      <trkpt lat="46.145438" lon="9.946378"><ele>492.4</ele></trkpt>
      <trkpt lat="46.145524" lon="9.946458"><ele>493.1</ele></trkpt>
      <trkpt lat="46.145595" lon="9.946533"><ele>493.2</ele></trkpt>
      <trkpt lat="46.145670" lon="9.946599"><ele>491.3</ele></trkpt>
      <trkpt lat="46.145745" lon="9.946662"><ele>492.1</ele></trkpt>
      <trkpt lat="46.145832" lon="9.946720"><ele>491.6</ele></trkpt>
      <trkpt lat="46.145906" lon="9.946784"><ele>492.4</ele></trkpt>
      <trkpt lat="46.145982" lon="9.946861"><ele>491.6</ele></trkpt>
      <trkpt lat="46.146055" lon="9.946921"><ele>492.4</ele></trkpt>
      <trkpt lat="46.146123" lon="9.946973"><ele>492.9</ele></trkpt>
      <trkpt lat="46.146211" lon="9.947035"><ele>492.7</ele></trkpt>
      <trkpt lat="46.146277" lon="9.947097"><ele>492.9</ele></trkpt>
      <trkpt lat="46.146360" lon="9.947164"><ele>491.5</ele></trkpt>
      <trkpt lat="46.146435" lon="9.947213"><ele>492.4</ele></trkpt>
      <trkpt lat="46.146496" lon="9.947274"><ele>493.2</ele></trkpt>
      <trkpt lat="46.146576" lon="9.947330"><ele>491.8</ele></trkpt>
      <trkpt lat="46.146650" lon="9.947383"><ele>492.3</ele></trkpt>
      <trkpt lat="46.146716" lon="9.947422"><ele>493.6</ele></trkpt>
      <trkpt lat="46.146800" lon="9.947472"><ele>493.6</ele></trkpt>
      <trkpt lat="46.146879" lon="9.947537"><ele>494.8</ele></trkpt>
      <trkpt lat="46.146945" lon="9.947590"><ele>495.4</ele></trkpt>
      <trkpt lat="46.147014" lon="9.947645"><ele>494.8</ele></trkpt>
      <trkpt lat="46.147091" lon="9.947680"><ele>494.7</ele></trkpt>
      <trkpt lat="46.147165" lon="9.947727"><ele>495.6</ele></trkpt>
      <trkpt lat="46.147224" lon="9.947790"><ele>496.0</ele></trkpt>
      <trkpt lat="46.147287" lon="9.947826"><ele>497.6</ele></trkpt>
      <trkpt lat="46.147373" lon="9.947892"><ele>496.9</ele></trkpt>
      <trkpt lat="46.147441" lon="9.947940"><ele>498.7</ele></trkpt>
      <trkpt lat="46.147505" lon="9.947976"><ele>498.6</ele></trkpt>
      <trkpt lat="46.147578" lon="9.948030"><ele>500.2</ele></trkpt>
      <trkpt lat="46.147632" lon="9.948079"><ele>500.3</ele></trkpt>
      <trkpt lat="46.147713" lon="9.948121"><ele>502.5</ele></trkpt>
      <trkpt lat="46.147778" lon="9.948173"><ele>503.1</ele></trkpt>
      <trkpt lat="46.147836" lon="9.948220"><ele>503.7</ele></trkpt>
      <trkpt lat="46.147904" lon="9.948267"><ele>505.0</ele></trkpt>
      <trkpt lat="46.147976" lon="9.948330"><ele>507.1</ele></trkpt>
      <trkpt lat="46.148042" lon="9.948364"><ele>506.8</ele></trkpt>
      <trkpt lat="46.148099" lon="9.948424"><ele>508.8</ele></trkpt>
      <trkpt lat="46.148156" lon="9.948473"><ele>509.6</ele></trkpt>
      <trkpt lat="46.148221" lon="9.948530"><ele>511.1</ele></trkpt>
      <trkpt lat="46.148295" lon="9.948567"><ele>512.3</ele></trkpt>
      <trkpt lat="46.148352" lon="9.948616"><ele>514.8</ele></trkpt>
      <trkpt lat="46.148413" lon="9.948683"><ele>514.8</ele></trkpt>
      <trkpt lat="46.148475" lon="9.948728"><ele>517.3</ele></trkpt>
      <trkpt lat="46.148537" lon="9.948776"><ele>518.4</ele></trkpt>
      <trkpt lat="46.148604" lon="9.948831"><ele>520.9</ele></trkpt>
      <trkpt lat="46.148667" lon="9.948880"><ele>521.8</ele></trkpt>
      <trkpt lat="46.148733" lon="9.948946"><ele>524.0</ele></trkpt>
      <trkpt lat="46.148781" lon="9.948998"><ele>526.0</ele></trkpt>
      <trkpt lat="46.148842" lon="9.949048"><ele>527.5</ele></trkpt>
      <trkpt lat="46.148911" lon="9.949118"><ele>529.5</ele></trkpt>
      <trkpt lat="46.148966" lon="9.949174"><ele>531.6</ele></trkpt>
      <trkpt lat="46.149027" lon="9.949220"><ele>532.4</ele></trkpt>
      <trkpt lat="46.149097" lon="9.949288"><ele>534.0</ele></trkpt>
      <trkpt lat="46.149145" lon="9.949337"><ele>536.2</ele></trkpt>
      <trkpt lat="46.149209" lon="9.949399"><ele>539.7</ele></trkpt>
      <trkpt lat="46.149266" lon="9.949463"><ele>540.3</ele></trkpt>
      <trkpt lat="46.149342" lon="9.949523"><ele>543.2</ele></trkpt>
      <trkpt lat="46.149388" lon="9.949580"><ele>544.4</ele></trkpt>
      <trkpt lat="46.149458" lon="9.949640"><ele>546.7</ele></trkpt>
      <trkpt lat="46.149520" lon="9.949711"><ele>549.1</ele></trkpt>
      <trkpt lat="46.149572" lon="9.949774"><ele>552.4</ele></trkpt>
      <trkpt lat="46.149648" lon="9.949829"><ele>554.6</ele></trkpt>
      <trkpt lat="46.149711" lon="9.949892"><ele>556.8</ele></trkpt>
      <trkpt lat="46.149762" lon="9.949956"><ele>560.1</ele></trkpt>
      <trkpt lat="46.149818" lon="9.950029"><ele>562.1</ele></trkpt>
      <trkpt lat="46.149901" lon="9.950093"><ele>564.5</ele></trkpt>
      <trkpt lat="46.149950" lon="9.950159"><ele>566.4</ele></trkpt>
      <trkpt lat="46.150014" lon="9.950224"><ele>569.7</ele></trkpt>
      <trkpt lat="46.150084" lon="9.950303"><ele>572.9</ele></trkpt>
      <trkpt lat="46.150146" lon="9.950370"><ele>575.1</ele></trkpt>
      <trkpt lat="46.150222" lon="9.950433"><ele>577.0</ele></trkpt>
      <trkpt lat="46.150274" lon="9.950497"><ele>580.8</ele></trkpt>
      <trkpt lat="46.150341" lon="9.950565"><ele>583.5</ele></trkpt>
      <trkpt lat="46.150407" lon="9.950630"><ele>585.4</ele></trkpt>
      <trkpt lat="46.150481" lon="9.950711"><ele>589.6</ele></trkpt>
      <trkpt lat="46.150542" lon="9.950771"><ele>592.0</ele></trkpt>
      <trkpt lat="46.150616" lon="9.950832"><ele>594.3</ele></trkpt>
      <trkpt lat="46.150701" lon="9.950906"><ele>597.7</ele></trkpt>
      <trkpt lat="46.150757" lon="9.950981"><ele>601.0</ele></trkpt>
      <trkpt lat="46.150836" lon="9.951039"><ele>603.0</ele></trkpt>
      <trkpt lat="46.150900" lon="9.951106"><ele>607.3</ele></trkpt>
      <trkpt lat="46.150984" lon="9.951187"><ele>609.5</ele></trkpt>
      <trkpt lat="46.151045" lon="9.951244"><ele>612.6</ele></trkpt>
      <trkpt lat="46.151133" lon="9.951305"><ele>616.1</ele></trkpt>
      <trkpt lat="46.151208" lon="9.951388"><ele>619.7</ele></trkpt>
      <trkpt lat="46.151285" lon="9.951447"><ele>622.4</ele></trkpt>
      <trkpt lat="46.151347" lon="9.951511"><ele>625.5</ele></trkpt>
      <trkpt lat="46.151429" lon="9.951573"><ele>628.5</ele></trkpt>
      <trkpt lat="46.151503" lon="9.951633"><ele>631.6</ele></trkpt>
      <trkpt lat="46.151600" lon="9.951695"><ele>633.6</ele></trkpt>
      <trkpt lat="46.151679" lon="9.951760"><ele>637.2</ele></trkpt>
      <trkpt lat="46.151756" lon="9.951819"><ele>640.8</ele></trkpt>
      <trkpt lat="46.151830" lon="9.951877"><ele>643.8</ele></trkpt>
      <trkpt lat="46.151920" lon="9.951934"><ele>646.0</ele></trkpt>
      <trkpt lat="46.151991" lon="9.952004"><ele>649.9</ele></trkpt>
    </trkseg>
  </trk>
</gpx>
