<?xml version="1.0" encoding="UTF-8"?>
<gpx version="1.1" creator="trails-of-piateda fixtures" xmlns="http://www.topografix.com/GPX/1/1">
  <metadata>
    <name>Piateda - Ambria</name>
  </metadata>
  <wpt lat="46.161200" lon="9.931200">
    <name>Piateda</name>
  </wpt>
  <wpt lat="46.118000" lon="9.945500">
    <name>Ambria</name>
  </wpt>
  <trk>
    <name>Piateda - Ambria</name>
    <trkseg>
      <trkpt lat="46.161190" lon="9.931203"><ele>330.1</ele></trkpt>
      <trkpt lat="46.161106" lon="9.931369"><ele>329.6</ele></trkpt>
      <trkpt lat="46.160998" lon="9.931521"><ele>329.9</ele></trkpt>
      <trkpt lat="46.160890" lon="9.931684"><ele>330.1</ele></trkpt>
      <trkpt lat="46.160786" lon="9.931818"><ele>329.6</ele></trkpt>
      <trkpt lat="46.160684" lon="9.931965"><ele>329.4</ele></trkpt>
      <trkpt lat="46.160587" lon="9.932109"><ele>329.9</ele></trkpt>
      <trkpt lat="46.160469" lon="9.932237"><ele>330.3</ele></trkpt>
      <trkpt lat="46.160381" lon="9.932368"><ele>330.2</ele></trkpt>
      <trkpt lat="46.160275" lon="9.932474"><ele>330.9</ele></trkpt>
      <trkpt lat="46.160163" lon="9.932587"><ele>331.4</ele></trkpt>
      <trkpt lat="46.160071" lon="9.932672"><ele>332.1</ele></trkpt>
      <trkpt lat="46.159968" lon="9.932747"><ele>330.7</ele></trkpt>
      <trkpt lat="46.159858" lon="9.932815"><ele>331.1</ele></trkpt>
      <trkpt lat="46.159761" lon="9.932865"><ele>332.0</ele></trkpt>
      <trkpt lat="46.159649" lon="9.932904"><ele>331.2</ele></trkpt>
      <trkpt lat="46.159558" lon="9.932941"><ele>331.9</ele></trkpt>
      <trkpt lat="46.159452" lon="9.932963"><ele>332.6</ele></trkpt>
      <trkpt lat="46.159348" lon="9.932950"><ele>334.0</ele></trkpt>
      <trkpt lat="46.159245" lon="9.932951"><ele>334.3</ele></trkpt>
      <trkpt lat="46.159147" lon="9.932925"><ele>333.0</ele></trkpt>
      <trkpt lat="46.159042" lon="9.932875"><ele>333.8</ele></trkpt>
      <trkpt lat="46.158932" lon="9.932846"><ele>335.5</ele></trkpt>
      <trkpt lat="46.158822" lon="9.932787"><ele>335.4</ele></trkpt>
      <trkpt lat="46.158718" lon="9.932728"><ele>336.4</ele></trkpt>
      <trkpt lat="46.158620" lon="9.932640"><ele>335.2</ele></trkpt>
      <trkpt lat="46.158516" lon="9.932566"><ele>336.8</ele></trkpt>
      <trkpt lat="46.158417" lon="9.932485"><ele>336.1</ele></trkpt>
      <trkpt lat="46.158320" lon="9.932403"><ele>337.0</ele></trkpt>
      <trkpt lat="46.158206" lon="9.932300"><ele>338.8</ele></trkpt>
      <trkpt lat="46.158100" lon="9.932211"><ele>338.9</ele></trkpt>
      <trkpt lat="46.158000" lon="9.932124"><ele>338.4</ele></trkpt>
      <trkpt lat="46.157892" lon="9.932026"><ele>339.3</ele></trkpt>
      <trkpt lat="46.157801" lon="9.931950"><ele>339.6</ele></trkpt>
      <trkpt lat="46.157695" lon="9.931863"><ele>340.4</ele></trkpt>
      <trkpt lat="46.157586" lon="9.931791"><ele>342.6</ele></trkpt>
      <trkpt lat="46.157496" lon="9.931724"><ele>341.3</ele></trkpt>
      <trkpt lat="46.157376" lon="9.931645"><ele>344.0</ele></trkpt>
      <trkpt lat="46.157287" lon="9.931594"><ele>344.4</ele></trkpt>
      <trkpt lat="46.157174" lon="9.931545"><ele>345.2</ele></trkpt>
      <trkpt lat="46.157082" lon="9.931526"><ele>344.6</ele></trkpt>
      <trkpt lat="46.156966" lon="9.931490"><ele>345.8</ele></trkpt>
      <trkpt lat="46.156865" lon="9.931489"><ele>347.5</ele></trkpt>
      <trkpt lat="46.156775" lon="9.931487"><ele>348.2</ele></trkpt>
      <trkpt lat="46.156667" lon="9.931510"><ele>347.8</ele></trkpt>
      <trkpt lat="46.156557" lon="9.931534"><ele>348.6</ele></trkpt>
      <trkpt lat="46.156466" lon="9.931573"><ele>351.0</ele></trkpt>
      <trkpt lat="46.156351" lon="9.931626"><ele>350.0</ele></trkpt>
      <trkpt lat="46.156257" lon="9.931692"><ele>351.6</ele></trkpt>
      <trkpt lat="46.156141" lon="9.931777"><ele>353.3</ele></trkpt>
      <trkpt lat="46.156053" lon="9.931871"><ele>353.7</ele></trkpt>
      <trkpt lat="46.155945" lon="9.931977"><ele>354.2</ele></trkpt>
      <trkpt lat="46.155839" lon="9.932088"><ele>356.0</ele></trkpt>
      <trkpt lat="46.155727" lon="9.932224"><ele>355.9</ele></trkpt>
      <trkpt lat="46.155635" lon="9.932353"><ele>356.5</ele></trkpt>
      <trkpt lat="46.155528" lon="9.932488"><ele>359.2</ele></trkpt>
      <trkpt lat="46.155423" lon="9.932641"><ele>359.2</ele></trkpt>
      <trkpt lat="46.155313" lon="9.932793"><ele>361.4</ele></trkpt>
      <trkpt lat="46.155221" lon="9.932948"><ele>361.9</ele></trkpt>
      <trkpt lat="46.155108" lon="9.933098"><ele>363.4</ele></trkpt>
      <trkpt lat="46.155018" lon="9.933259"><ele>363.4</ele></trkpt>
      <trkpt lat="46.154907" lon="9.933428"><ele>365.0</ele></trkpt>
      <trkpt lat="46.154799" lon="9.933592"><ele>365.3</ele></trkpt>
      <trkpt lat="46.154708" lon="9.933732"><ele>366.3</ele></trkpt>
      <trkpt lat="46.154599" lon="9.933890"><ele>369.0</ele></trkpt>
      <trkpt lat="46.154490" lon="9.934030"><ele>370.6</ele></trkpt>
      <trkpt lat="46.154386" lon="9.934183"><ele>371.5</ele></trkpt>
      <trkpt lat="46.154290" lon="9.934297"><ele>372.2</ele></trkpt>
      <trkpt lat="46.154187" lon="9.934427"><ele>373.7</ele></trkpt>
      <trkpt lat="46.154082" lon="9.934530"><ele>375.4</ele></trkpt>
      <trkpt lat="46.153984" lon="9.934641"><ele>374.8</ele></trkpt>
      <trkpt lat="46.153882" lon="9.934721"><ele>376.5</ele></trkpt>
      <trkpt lat="46.153779" lon="9.934798"><ele>378.6</ele></trkpt>
      <trkpt lat="46.153665" lon="9.934860"><ele>378.7</ele></trkpt>
      <trkpt lat="46.153574" lon="9.934919"><ele>381.3</ele></trkpt>
      <trkpt lat="46.153470" lon="9.934965"><ele>382.7</ele></trkpt>
      <trkpt lat="46.153355" lon="9.934994"><ele>384.5</ele></trkpt>
      <trkpt lat="46.153252" lon="9.935005"><ele>385.8</ele></trkpt>
      <trkpt lat="46.153159" lon="9.934997"><ele>386.3</ele></trkpt>
      <trkpt lat="46.153047" lon="9.934975"><ele>388.3</ele></trkpt>
      <trkpt lat="46.152942" lon="9.934955"><ele>389.4</ele></trkpt>
      <trkpt lat="46.152852" lon="9.934922"><ele>391.5</ele></trkpt>
      <trkpt lat="46.152751" lon="9.934874"><ele>391.4</ele></trkpt>
      <trkpt lat="46.152647" lon="9.934815"><ele>393.1</ele></trkpt>
      <trkpt lat="46.152545" lon="9.934759"><ele>394.4</ele></trkpt>
      <trkpt lat="46.152440" lon="9.934672"><ele>395.8</ele></trkpt>
      <trkpt lat="46.152342" lon="9.934606"><ele>397.9</ele></trkpt>
      <trkpt lat="46.152237" lon="9.934523"><ele>400.1</ele></trkpt>
      <trkpt lat="46.152129" lon="9.934426"><ele>401.2</ele></trkpt>
      <trkpt lat="46.152017" lon="9.934330"><ele>403.8</ele></trkpt>
      <trkpt lat="46.151912" lon="9.934248"><ele>404.7</ele></trkpt>
      <trkpt lat="46.151811" lon="9.934155"><ele>405.4</ele></trkpt>
      <trkpt lat="46.151710" lon="9.934073"><ele>406.8</ele></trkpt>
      <trkpt lat="46.151608" lon="9.933977"><ele>410.3</ele></trkpt>
      <trkpt lat="46.151508" lon="9.933897"><ele>410.0</ele></trkpt>
      <trkpt lat="46.151396" lon="9.933820"><ele>413.2</ele></trkpt>
      <trkpt lat="46.151296" lon="9.933757"><ele>414.6</ele></trkpt>
      <trkpt lat="46.151201" lon="9.933694"><ele>416.2</ele></trkpt>
      <trkpt lat="46.151098" lon="9.933632"><ele>417.9</ele></trkpt>
      <trkpt lat="46.151000" lon="9.933596"><ele>419.2</ele></trkpt>
      <trkpt lat="46.150894" lon="9.933564"><ele>420.7</ele></trkpt>
      <trkpt lat="46.150794" lon="9.933532"><ele>422.7</ele></trkpt>
      <trkpt lat="46.150684" lon="9.933540"><ele>425.0</ele></trkpt>
      <trkpt lat="46.150573" lon="9.933534"><ele>427.0</ele></trkpt>
      <trkpt lat="46.150483" lon="9.933556"><ele>427.5</ele></trkpt>
      <trkpt lat="46.150380" lon="9.933574"><ele>430.6</ele></trkpt>
      <trkpt lat="46.150268" lon="9.933622"><ele>432.3</ele></trkpt>
      <trkpt lat="46.150163" lon="9.933676"><ele>432.8</ele></trkpt>
      <trkpt lat="46.150074" lon="9.933751"><ele>435.1</ele></trkpt>
      <trkpt lat="46.149965" lon="9.933836"><ele>436.7</ele></trkpt>
      <trkpt lat="46.149865" lon="9.933935"><ele>439.6</ele></trkpt>
      <trkpt lat="46.149748" lon="9.934037"><ele>440.9</ele></trkpt>
      <trkpt lat="46.149652" lon="9.934162"><ele>443.8</ele></trkpt>
      <trkpt lat="46.149552" lon="9.934289"><ele>444.3</ele></trkpt>
      <trkpt lat="46.149449" lon="9.934416"><ele>447.0</ele></trkpt>
      <trkpt lat="46.149341" lon="9.934563"><ele>449.6</ele></trkpt>
      <trkpt lat="46.149239" lon="9.934694"><ele>450.2</ele></trkpt>
      <trkpt lat="46.149137" lon="9.934846"><ele>452.6</ele></trkpt>
      <trkpt lat="46.149030" lon="9.935018"><ele>455.2</ele></trkpt>
      <trkpt lat="46.148929" lon="9.935180"><ele>456.0</ele></trkpt>
      <trkpt lat="46.148828" lon="9.935333"><ele>458.3</ele></trkpt>
      <trkpt lat="46.148728" lon="9.935500"><ele>460.6</ele></trkpt>
      <trkpt lat="46.148612" lon="9.935649"><ele>462.4</ele></trkpt>
      <trkpt lat="46.148519" lon="9.935797"><ele>463.7</ele></trkpt>
      <trkpt lat="46.148412" lon="9.935955"><ele>466.8</ele></trkpt>
      <trkpt lat="46.148305" lon="9.936093"><ele>468.3</ele></trkpt>
      <trkpt lat="46.148205" lon="9.936232"><ele>471.0</ele></trkpt>
      <trkpt lat="46.148098" lon="9.936367"><ele>472.6</ele></trkpt>
      <trkpt lat="46.148008" lon="9.936479"><ele>475.0</ele></trkpt>
      <trkpt lat="46.147899" lon="9.936590"><ele>476.0</ele></trkpt>
      <trkpt lat="46.147794" lon="9.936688"><ele>479.3</ele></trkpt>
      <trkpt lat="46.147691" lon="9.936792"><ele>481.5</ele></trkpt>
      <trkpt lat="46.147589" lon="9.936858"><ele>483.1</ele></trkpt>
      <trkpt lat="46.147489" lon="9.936912"><ele>485.8</ele></trkpt>
      <trkpt lat="46.147375" lon="9.936970"><ele>487.3</ele></trkpt>
      <trkpt lat="46.147284" lon="9.936998"><ele>490.8</ele></trkpt>
      <trkpt lat="46.147178" lon="9.937038"><ele>492.6</ele></trkpt>
      <trkpt lat="46.147065" lon="9.937040"><ele>493.7</ele></trkpt>
      <trkpt lat="46.146963" lon="9.937046"><ele>496.0</ele></trkpt>
      <trkpt lat="46.146876" lon="9.937029"><ele>498.3</ele></trkpt>
      <trkpt lat="46.146772" lon="9.937001"><ele>501.0</ele></trkpt>
      <trkpt lat="46.146654" lon="9.936951"><ele>502.3</ele></trkpt>
      <trkpt lat="46.146559" lon="9.936912"><ele>505.2</ele></trkpt>
      <trkpt lat="46.146453" lon="9.936850"><ele>507.7</ele></trkpt>
      <trkpt lat="46.146360" lon="9.936790"><ele>508.8</ele></trkpt>
      <trkpt lat="46.146251" lon="9.936718"><ele>511.6</ele></trkpt>
      <trkpt lat="46.146147" lon="9.936638"><ele>513.9</ele></trkpt>
      <trkpt lat="46.146050" lon="9.936543"><ele>516.6</ele></trkpt>
      <trkpt lat="46.145935" lon="9.936464"><ele>519.5</ele></trkpt>
      <trkpt lat="46.145843" lon="9.936364"><ele>520.3</ele></trkpt>
      <trkpt lat="46.145731" lon="9.936270"><ele>523.7</ele></trkpt>
      <trkpt lat="46.145632" lon="9.936180"><ele>525.5</ele></trkpt>
      <trkpt lat="46.145533" lon="9.936090"><ele>528.3</ele></trkpt>
      <trkpt lat="46.145417" lon="9.936017"><ele>531.2</ele></trkpt>
      <trkpt lat="46.145314" lon="9.935922"><ele>532.3</ele></trkpt>
      <trkpt lat="46.145217" lon="9.935853"><ele>535.0</ele></trkpt>
      <trkpt lat="46.145120" lon="9.935779"><ele>538.1</ele></trkpt>
      <trkpt lat="46.145005" lon="9.935726"><ele>539.2</ele></trkpt>
      <trkpt lat="46.144903" lon="9.935665"><ele>542.0</ele></trkpt>
      <trkpt lat="46.144798" lon="9.935619"><ele>544.0</ele></trkpt>
      <trkpt lat="46.144699" lon="9.935597"><ele>547.0</ele></trkpt>
      <trkpt lat="46.144591" lon="9.935574"><ele>549.4</ele></trkpt>
      <trkpt lat="46.144507" lon="9.935575"><ele>552.1</ele></trkpt>
      <trkpt lat="46.144394" lon="9.935578"><ele>554.0</ele></trkpt>
      <trkpt lat="46.144283" lon="9.935602"><ele>556.5</ele></trkpt>
      <trkpt lat="46.144183" lon="9.935630"><ele>559.2</ele></trkpt>
      <trkpt lat="46.144082" lon="9.935686"><ele>561.6</ele></trkpt>
      <trkpt lat="46.143992" lon="9.935745"><ele>564.2</ele></trkpt>
      <trkpt lat="46.143878" lon="9.935815"><ele>565.7</ele></trkpt>
      <trkpt lat="46.143784" lon="9.935887"><ele>568.8</ele></trkpt>
      <trkpt lat="46.143668" lon="9.935980"><ele>571.4</ele></trkpt>
      <trkpt lat="46.143575" lon="9.936099"><ele>572.2</ele></trkpt>
      <trkpt lat="46.143468" lon="9.936217"><ele>574.8</ele></trkpt>
      <trkpt lat="46.143354" lon="9.936335"><ele>578.6</ele></trkpt>
      <trkpt lat="46.143268" lon="9.936467"><ele>580.0</ele></trkpt>
      <trkpt lat="46.143148" lon="9.936616"><ele>583.3</ele></trkpt>
      <trkpt lat="46.143061" lon="9.936771"><ele>586.3</ele></trkpt>
      <trkpt lat="46.142959" lon="9.936912"><ele>588.3</ele></trkpt>
      <trkpt lat="46.142844" lon="9.937080"><ele>589.5</ele></trkpt>
      <trkpt lat="46.142738" lon="9.937243"><ele>593.3</ele></trkpt>
      <trkpt lat="46.142637" lon="9.937405"><ele>595.2</ele></trkpt>
      <trkpt lat="46.142546" lon="9.937566"><ele>597.1</ele></trkpt>
      <trkpt lat="46.142427" lon="9.937720"><ele>600.5</ele></trkpt>
      <trkpt lat="46.142326" lon="9.937865"><ele>602.1</ele></trkpt>
      <trkpt lat="46.142227" lon="9.938012"><ele>605.5</ele></trkpt>
      <trkpt lat="46.142135" lon="9.938154"><ele>607.6</ele></trkpt>
      <trkpt lat="46.142022" lon="9.938289"><ele>609.8</ele></trkpt>
      <trkpt lat="46.141910" lon="9.938423"><ele>613.2</ele></trkpt>
      <trkpt lat="46.141826" lon="9.938554"><ele>614.9</ele></trkpt>
      <trkpt lat="46.141715" lon="9.938659"><ele>617.4</ele></trkpt>
      <trkpt lat="46.141602" lon="9.938759"><ele>619.6</ele></trkpt>
      <trkpt lat="46.141505" lon="9.938828"><ele>623.6</ele></trkpt>
      <trkpt lat="46.141400" lon="9.938914"><ele>625.2</ele></trkpt>
      <trkpt lat="46.141299" lon="9.938970"><ele>628.2</ele></trkpt>
      <trkpt lat="46.141203" lon="9.939019"><ele>631.0</ele></trkpt>
      <trkpt lat="46.141086" lon="9.939058"><ele>633.0</ele></trkpt>
      <trkpt lat="46.140990" lon="9.939074"><ele>636.3</ele></trkpt>
      <trkpt lat="46.140883" lon="9.939088"><ele>639.1</ele></trkpt>
      <trkpt lat="46.140794" lon="9.939083"><ele>640.1</ele></trkpt>
      <trkpt lat="46.140673" lon="9.939072"><ele>643.2</ele></trkpt>
      <trkpt lat="46.140582" lon="9.939027"><ele>644.9</ele></trkpt>
      <trkpt lat="46.140469" lon="9.938996"><ele>647.6</ele></trkpt>
      <trkpt lat="46.140372" lon="9.938941"><ele>650.4</ele></trkpt>
      <trkpt lat="46.140262" lon="9.938887"><ele>652.7</ele></trkpt>
      <trkpt lat="46.140171" lon="9.938813"><ele>656.6</ele></trkpt>
      <trkpt lat="46.140063" lon="9.938742"><ele>659.5</ele></trkpt>
      <trkpt lat="46.139952" lon="9.938667"><ele>662.0</ele></trkpt>
      <trkpt lat="46.139852" lon="9.938568"><ele>663.7</ele></trkpt>
      <trkpt lat="46.139757" lon="9.938488"><ele>665.4</ele></trkpt>
      <trkpt lat="46.139655" lon="9.938393"><ele>669.1</ele></trkpt>
      <trkpt lat="46.139549" lon="9.938301"><ele>671.7</ele></trkpt>
      <trkpt lat="46.139448" lon="9.938222"><ele>674.6</ele></trkpt>
      <trkpt lat="46.139347" lon="9.938129"><ele>676.0</ele></trkpt>
      <trkpt lat="46.139245" lon="9.938046"><ele>678.9</ele></trkpt>
      <trkpt lat="46.139142" lon="9.937954"><ele>682.3</ele></trkpt>
      <trkpt lat="46.139024" lon="9.937891"><ele>684.7</ele></trkpt>
      <trkpt lat="46.138928" lon="9.937815"><ele>685.8</ele></trkpt>
      <trkpt lat="46.138826" lon="9.937754"><ele>688.6</ele></trkpt>
      <trkpt lat="46.138733" lon="9.937706"><ele>691.7</ele></trkpt>
      <trkpt lat="46.138630" lon="9.937657"><ele>694.3</ele></trkpt>
      <trkpt lat="46.138508" lon="9.937641"><ele>697.3</ele></trkpt>
      <trkpt lat="46.138420" lon="9.937627"><ele>700.1</ele></trkpt>
      <trkpt lat="46.138315" lon="9.937625"><ele>700.9</ele></trkpt>
      <trkpt lat="46.138207" lon="9.937629"><ele>705.3</ele></trkpt>
      <trkpt lat="46.138108" lon="9.937647"><ele>706.2</ele></trkpt>
      <trkpt lat="46.137996" lon="9.937686"><ele>709.5</ele></trkpt>
      <trkpt lat="46.137893" lon="9.937724"><ele>711.7</ele></trkpt>
      <trkpt lat="46.137786" lon="9.937782"><ele>714.3</ele></trkpt>
      <trkpt lat="46.137695" lon="9.937854"><ele>716.3</ele></trkpt>
      <trkpt lat="46.137589" lon="9.937945"><ele>720.3</ele></trkpt>
      <trkpt lat="46.137496" lon="9.938048"><ele>721.8</ele></trkpt>
      <trkpt lat="46.137383" lon="9.938153"><ele>724.2</ele></trkpt>
      <trkpt lat="46.137282" lon="9.938272"><ele>727.0</ele></trkpt>
      <trkpt lat="46.137169" lon="9.938402"><ele>729.2</ele></trkpt>
      <trkpt lat="46.137065" lon="9.938540"><ele>731.4</ele></trkpt>
      <trkpt lat="46.136973" lon="9.938677"><ele>734.3</ele></trkpt>
      <trkpt lat="46.136876" lon="9.938823"><ele>736.2</ele></trkpt>
      <trkpt lat="46.136772" lon="9.938978"><ele>739.0</ele></trkpt>
      <trkpt lat="46.136666" lon="9.939136"><ele>742.3</ele></trkpt>
      <trkpt lat="46.136553" lon="9.939308"><ele>745.0</ele></trkpt>
      <trkpt lat="46.136465" lon="9.939460"><ele>747.6</ele></trkpt>
      <trkpt lat="46.136347" lon="9.939617"><ele>749.2</ele></trkpt>
      <trkpt lat="46.136252" lon="9.939775"><ele>751.0</ele></trkpt>
      <trkpt lat="46.136156" lon="9.939928"><ele>754.4</ele></trkpt>
      <trkpt lat="46.136046" lon="9.940078"><ele>757.5</ele></trkpt>
      <trkpt lat="46.135944" lon="9.940220"><ele>760.4</ele></trkpt>
      <trkpt lat="46.135828" lon="9.940363"><ele>762.2</ele></trkpt>
      <trkpt lat="46.135733" lon="9.940482"><ele>764.1</ele></trkpt>
      <trkpt lat="46.135631" lon="9.940613"><ele>766.6</ele></trkpt>
      <trkpt lat="46.135519" lon="9.940720"><ele>769.0</ele></trkpt>
      <trkpt lat="46.135433" lon="9.940813"><ele>770.9</ele></trkpt>
      <trkpt lat="46.135317" lon="9.940894"><ele>775.0</ele></trkpt>
      <trkpt lat="46.135210" lon="9.940955"><ele>776.7</ele></trkpt>
      <trkpt lat="46.135118" lon="9.941014"><ele>778.6</ele></trkpt>
      <trkpt lat="46.135009" lon="9.941058"><ele>781.1</ele></trkpt>
      <trkpt lat="46.134914" lon="9.941105"><ele>783.9</ele></trkpt>
      <trkpt lat="46.134816" lon="9.941124"><ele>785.7</ele></trkpt>
      <trkpt lat="46.134701" lon="9.941136"><ele>788.9</ele></trkpt>
      <trkpt lat="46.134606" lon="9.941116"><ele>790.9</ele></trkpt>
      <trkpt lat="46.134499" lon="9.941107"><ele>793.7</ele></trkpt>
      <trkpt lat="46.134389" lon="9.941078"><ele>795.4</ele></trkpt>
      <trkpt lat="46.134295" lon="9.941027"><ele>798.3</ele></trkpt>
      <trkpt lat="46.134193" lon="9.940977"><ele>800.8</ele></trkpt>
      <trkpt lat="46.134088" lon="9.940909"><ele>803.7</ele></trkpt>
      <trkpt lat="46.133979" lon="9.940854"><ele>804.4</ele></trkpt>
      <trkpt lat="46.133875" lon="9.940779"><ele>808.1</ele></trkpt>
      <trkpt lat="46.133780" lon="9.940687"><ele>809.1</ele></trkpt>
      <trkpt lat="46.133662" lon="9.940610"><ele>811.8</ele></trkpt>
      <trkpt lat="46.133567" lon="9.940513"><ele>814.8</ele></trkpt>
      <trkpt lat="46.133464" lon="9.940417"><ele>816.6</ele></trkpt>
      <trkpt lat="46.133366" lon="9.940328"><ele>818.4</ele></trkpt>
      <trkpt lat="46.133253" lon="9.940253"><ele>822.1</ele></trkpt>
      <trkpt lat="46.133162" lon="9.940157"><ele>823.2</ele></trkpt>
      <trkpt lat="46.133046" lon="9.940066"><ele>825.6</ele></trkpt>
      <trkpt lat="46.132953" lon="9.939996"><ele>827.5</ele></trkpt>
      <trkpt lat="46.132849" lon="9.939919"><ele>830.1</ele></trkpt>
      <trkpt lat="46.132742" lon="9.939859"><ele>833.2</ele></trkpt>
      <trkpt lat="46.132642" lon="9.939799"><ele>835.2</ele></trkpt>
      <trkpt lat="46.132544" lon="9.939745"><ele>837.9</ele></trkpt>
      <trkpt lat="46.132442" lon="9.939713"><ele>839.6</ele></trkpt>
      <trkpt lat="46.132325" lon="9.939676"><ele>840.9</ele></trkpt>
      <trkpt lat="46.132221" lon="9.939669"><ele>843.1</ele></trkpt>
      <trkpt lat="46.132115" lon="9.939661"><ele>846.7</ele></trkpt>
      <trkpt lat="46.132029" lon="9.939675"><ele>848.2</ele></trkpt>
      <trkpt lat="46.131927" lon="9.939689"><ele>849.6</ele></trkpt>
      <trkpt lat="46.131808" lon="9.939733"><ele>852.8</ele></trkpt>
      <trkpt lat="46.131708" lon="9.939783"><ele>854.9</ele></trkpt>
      <trkpt lat="46.131617" lon="9.939843"><ele>856.2</ele></trkpt>
      <trkpt lat="46.131504" lon="9.939913"><ele>859.2</ele></trkpt>
      <trkpt lat="46.131407" lon="9.940008"><ele>859.9</ele></trkpt>
      <trkpt lat="46.131307" lon="9.940112"><ele>862.5</ele></trkpt>
      <trkpt lat="46.131191" lon="9.940217"><ele>864.4</ele></trkpt>
      <trkpt lat="46.131086" lon="9.940331"><ele>866.5</ele></trkpt>
      <trkpt lat="46.130986" lon="9.940466"><ele>869.0</ele></trkpt>
      <trkpt lat="46.130896" lon="9.940605"><ele>870.9</ele></trkpt>
      <trkpt lat="46.130784" lon="9.940754"><ele>873.3</ele></trkpt>
      <trkpt lat="46.130680" lon="9.940906"><ele>876.2</ele></trkpt>
      <trkpt lat="46.130577" lon="9.941052"><ele>876.5</ele></trkpt>
      <trkpt lat="46.130475" lon="9.941206"><ele>879.0</ele></trkpt>
      <trkpt lat="46.130375" lon="9.941369"><ele>882.4</ele></trkpt>
      <trkpt lat="46.130259" lon="9.941525"><ele>883.8</ele></trkpt>
      <trkpt lat="46.130159" lon="9.941679"><ele>886.1</ele></trkpt>
      <trkpt lat="46.130069" lon="9.941852"><ele>887.7</ele></trkpt>
      <trkpt lat="46.129950" lon="9.942007"><ele>889.8</ele></trkpt>
      <trkpt lat="46.129850" lon="9.942136"><ele>891.3</ele></trkpt>
      <trkpt lat="46.129755" lon="9.942281"><ele>893.8</ele></trkpt>
      <trkpt lat="46.129660" lon="9.942418"><ele>894.3</ele></trkpt>
      <trkpt lat="46.129548" lon="9.942537"><ele>897.3</ele></trkpt>
      <trkpt lat="46.129441" lon="9.942666"><ele>897.9</ele></trkpt>
      <trkpt lat="46.129348" lon="9.942769"><ele>901.5</ele></trkpt>
      <trkpt lat="46.129230" lon="9.942862"><ele>902.0</ele></trkpt>
      <trkpt lat="46.129135" lon="9.942936"><ele>903.7</ele></trkpt>
      <trkpt lat="46.129032" lon="9.943016"><ele>906.9</ele></trkpt>
      <trkpt lat="46.128935" lon="9.943066"><ele>907.8</ele></trkpt>
      <trkpt lat="46.128824" lon="9.943116"><ele>909.7</ele></trkpt>
      <trkpt lat="46.128720" lon="9.943155"><ele>911.6</ele></trkpt>
      <trkpt lat="46.128626" lon="9.943164"><ele>914.2</ele></trkpt>
      <trkpt lat="46.128523" lon="9.943174"><ele>914.9</ele></trkpt>
      <trkpt lat="46.128420" lon="9.943168"><ele>917.3</ele></trkpt>
      <trkpt lat="46.128301" lon="9.943133"><ele>919.5</ele></trkpt>
      <trkpt lat="46.128213" lon="9.943111"><ele>921.0</ele></trkpt>
      <trkpt lat="46.128105" lon="9.943066"><ele>923.1</ele></trkpt>
      <trkpt lat="46.128000" lon="9.943011"><ele>923.3</ele></trkpt>
      <trkpt lat="46.127899" lon="9.942950"><ele>925.7</ele></trkpt>
      <trkpt lat="46.127792" lon="9.942876"><ele>927.2</ele></trkpt>
      <trkpt lat="46.127688" lon="9.942814"><ele>929.1</ele></trkpt>
      <trkpt lat="46.127580" lon="9.942727"><ele>931.3</ele></trkpt>
      <trkpt lat="46.127485" lon="9.942644"><ele>933.1</ele></trkpt>
      <trkpt lat="46.127379" lon="9.942538"><ele>934.9</ele></trkpt>
      <trkpt lat="46.127274" lon="9.942462"><ele>936.0</ele></trkpt>
      <trkpt lat="46.127178" lon="9.942363"><ele>936.3</ele></trkpt>
      <trkpt lat="46.127069" lon="9.942276"><ele>938.7</ele></trkpt>
      <trkpt lat="46.126965" lon="9.942181"><ele>940.2</ele></trkpt>
      <trkpt lat="46.126861" lon="9.942093"><ele>941.1</ele></trkpt>
      <trkpt lat="46.126756" lon="9.942028"><ele>943.8</ele></trkpt>
      <trkpt lat="46.126653" lon="9.941954"><ele>944.2</ele></trkpt>
      <trkpt lat="46.126549" lon="9.941892"><ele>946.8</ele></trkpt>
      <trkpt lat="46.126459" lon="9.941823"><ele>947.3</ele></trkpt>
      <trkpt lat="46.126350" lon="9.941781"><ele>948.9</ele></trkpt>
      <trkpt lat="46.126249" lon="9.941744"><ele>950.6</ele></trkpt>
      <trkpt lat="46.126139" lon="9.941710"><ele>952.8</ele></trkpt>
      <trkpt lat="46.126051" lon="9.941705"><ele>954.1</ele></trkpt>
      <trkpt lat="46.125942" lon="9.941700"><ele>954.2</ele></trkpt>
      <trkpt lat="46.125827" lon="9.941723"><ele>955.5</ele></trkpt>
      <trkpt lat="46.125738" lon="9.941731"><ele>957.5</ele></trkpt>
      <trkpt lat="46.125632" lon="9.941789"><ele>958.6</ele></trkpt>
      <trkpt lat="46.125529" lon="9.941825"><ele>960.2</ele></trkpt>
      <trkpt lat="46.125431" lon="9.941901"><ele>962.3</ele></trkpt>
      <trkpt lat="46.125327" lon="9.941978"><ele>963.3</ele></trkpt>
      <trkpt lat="46.125226" lon="9.942052"><ele>965.0</ele></trkpt>
      <trkpt lat="46.125112" lon="9.942162"><ele>964.5</ele></trkpt>
      <trkpt lat="46.125002" lon="9.942279"><ele>967.2</ele></trkpt>
      <trkpt lat="46.124914" lon="9.942401"><ele>968.5</ele></trkpt>
      <trkpt lat="46.124801" lon="9.942525"><ele>969.9</ele></trkpt>
      <trkpt lat="46.124706" lon="9.942675"><ele>969.9</ele></trkpt>
      <trkpt lat="46.124589" lon="9.942804"><ele>970.7</ele></trkpt>
      <trkpt lat="46.124492" lon="9.942971"><ele>972.4</ele></trkpt>
      <trkpt lat="46.124388" lon="9.943111"><ele>973.2</ele></trkpt>
      <trkpt lat="46.124285" lon="9.943281"><ele>975.6</ele></trkpt>
      <trkpt lat="46.124184" lon="9.943443"><ele>976.7</ele></trkpt>
      <trkpt lat="46.124084" lon="9.943587"><ele>977.4</ele></trkpt>
      <trkpt lat="46.123976" lon="9.943761"><ele>978.6</ele></trkpt>
      <trkpt lat="46.123885" lon="9.943902"><ele>979.4</ele></trkpt>
      <trkpt lat="46.123783" lon="9.944053"><ele>980.6</ele></trkpt>
      <trkpt lat="46.123673" lon="9.944213"><ele>982.2</ele></trkpt>
      <trkpt lat="46.123570" lon="9.944357"><ele>982.8</ele></trkpt>
      <trkpt lat="46.123473" lon="9.944491"><ele>983.0</ele></trkpt>
      <trkpt lat="46.123354" lon="9.944599"><ele>985.4</ele></trkpt>
      <trkpt lat="46.123260" lon="9.944728"><ele>985.9</ele></trkpt>
      <trkpt lat="46.123154" lon="9.944827"><ele>986.2</ele></trkpt>
      <trkpt lat="46.123050" lon="9.944923"><ele>987.6</ele></trkpt>
      <trkpt lat="46.122945" lon="9.944997"><ele>988.4</ele></trkpt>
      <trkpt lat="46.122855" lon="9.945069"><ele>989.4</ele></trkpt>
      <trkpt lat="46.122748" lon="9.945128"><ele>990.3</ele></trkpt>
      <trkpt lat="46.122647" lon="9.945157"><ele>990.5</ele></trkpt>
      <trkpt lat="46.122527" lon="9.945198"><ele>992.2</ele></trkpt>
      <trkpt lat="46.122427" lon="9.945202"><ele>992.5</ele></trkpt>
      <trkpt lat="46.122327" lon="9.945214"><ele>993.8</ele></trkpt>
      <trkpt lat="46.122224" lon="9.945204"><ele>993.6</ele></trkpt>
      <trkpt lat="46.122123" lon="9.945180"><ele>994.3</ele></trkpt>
      <trkpt lat="46.122012" lon="9.945147"><ele>995.1</ele></trkpt>
      <trkpt lat="46.121919" lon="9.945107"><ele>995.5</ele></trkpt>
      <trkpt lat="46.121807" lon="9.945043"><ele>997.5</ele></trkpt>
      <trkpt lat="46.121711" lon="9.944991"><ele>997.0</ele></trkpt>
      <trkpt lat="46.121606" lon="9.944923"><ele>998.6</ele></trkpt>
      <trkpt lat="46.121497" lon="9.944842"><ele>998.6</ele></trkpt>
      <trkpt lat="46.121399" lon="9.944746"><ele>999.5</ele></trkpt>
      <trkpt lat="46.121299" lon="9.944660"><ele>1000.0</ele></trkpt>
      <trkpt lat="46.121189" lon="9.944572"><ele>1001.7</ele></trkpt>
      <trkpt lat="46.121090" lon="9.944494"><ele>1002.3</ele></trkpt>
      <trkpt lat="46.120990" lon="9.944393"><ele>1002.8</ele></trkpt>
      <trkpt lat="46.120894" lon="9.944302"><ele>1002.7</ele></trkpt>
      <trkpt lat="46.120778" lon="9.944219"><ele>1003.3</ele></trkpt>
      <trkpt lat="46.120673" lon="9.944141"><ele>1003.8</ele></trkpt>
      <trkpt lat="46.120570" lon="9.944048"><ele>1004.5</ele></trkpt>
      <trkpt lat="46.120466" lon="9.943980"><ele>1005.0</ele></trkpt>
      <trkpt lat="46.120367" lon="9.943915"><ele>1005.2</ele></trkpt>
      <trkpt lat="46.120261" lon="9.943870"><ele>1005.9</ele></trkpt>
      <trkpt lat="46.120161" lon="9.943821"><ele>1005.8</ele></trkpt>
      <trkpt lat="46.120056" lon="9.943780"><ele>1006.4</ele></trkpt>
      <trkpt lat="46.119968" lon="9.943757"><ele>1006.2</ele></trkpt>
      <trkpt lat="46.119853" lon="9.943750"><ele>1007.1</ele></trkpt>
      <trkpt lat="46.119761" lon="9.943739"><ele>1007.5</ele></trkpt>
      <trkpt lat="46.119652" lon="9.943760"><ele>1007.4</ele></trkpt>
      <trkpt lat="46.119549" lon="9.943780"><ele>1006.9</ele></trkpt>
      <trkpt lat="46.119436" lon="9.943834"><ele>1007.2</ele></trkpt>
      <trkpt lat="46.119332" lon="9.943873"><ele>1008.7</ele></trkpt>
      <trkpt lat="46.119239" lon="9.943941"><ele>1009.3</ele></trkpt>
      <trkpt lat="46.119132" lon="9.944026"><ele>1009.3</ele></trkpt>
      <trkpt lat="46.119029" lon="9.944111"><ele>1009.8</ele></trkpt>
      <trkpt lat="46.118930" lon="9.944230"><ele>1009.5</ele></trkpt>
      <trkpt lat="46.118823" lon="9.944339"><ele>1008.5</ele></trkpt>
      <trkpt lat="46.118728" lon="9.944466"><ele>1010.1</ele></trkpt>
      <trkpt lat="46.118617" lon="9.944587"><ele>1010.3</ele></trkpt>
      <trkpt lat="46.118523" lon="9.944728"><ele>1009.4</ele></trkpt>
      <trkpt lat="46.118402" lon="9.944866"><ele>1009.1</ele></trkpt>
      <trkpt lat="46.118303" lon="9.945021"><ele>1010.7</ele></trkpt>
      <trkpt lat="46.118205" lon="9.945181"><ele>1010.0</ele></trkpt>
      <trkpt lat="46.118101" lon="9.945330"><ele>1010.9</ele></trkpt>
      <trkpt lat="46.118004" lon="9.945496"><ele>1009.6</ele></trkpt>
    </trkseg>
  </trk>
</gpx>
