<?xml version="1.0" encoding="UTF-8"?>
<gpx version="1.1" creator="trails-of-piateda fixtures" xmlns="http://www.topografix.com/GPX/1/1">
  <metadata>
    <name>Sentiero senza quota</name>
  </metadata>
  <trk>
    <name>Sentiero senza quota</name>
    <trkseg>
      <trkpt lat="46.169996" lon="9.950005"></trkpt>
      <trkpt lat="46.170068" lon="9.950168"></trkpt>
      <trkpt lat="46.170118" lon="9.950334"></trkpt>
      <trkpt lat="46.170187" lon="9.950492"></trkpt>
      <trkpt lat="46.170248" lon="9.950663"></trkpt>
      <trkpt lat="46.170305" lon="9.950819"></trkpt>
      <trkpt lat="46.170353" lon="9.950996"></trkpt>
      <trkpt lat="46.170415" lon="9.951134"></trkpt>
      <trkpt lat="46.170491" lon="9.951287"></trkpt>
      <trkpt lat="46.170552" lon="9.951449"></trkpt>
      <trkpt lat="46.170600" lon="9.951592"></trkpt>
      <trkpt lat="46.170655" lon="9.951735"></trkpt>
      <trkpt lat="46.170730" lon="9.951880"></trkpt>
      <trkpt lat="46.170775" lon="9.952013"></trkpt>
      <trkpt lat="46.170838" lon="9.952130"></trkpt>
      <trkpt lat="46.170910" lon="9.952243"></trkpt>
      <trkpt lat="46.170964" lon="9.952374"></trkpt>
      <trkpt lat="46.171029" lon="9.952470"></trkpt>
      <trkpt lat="46.171088" lon="9.952591"></trkpt>
      <trkpt lat="46.171153" lon="9.952676"></trkpt>
      <trkpt lat="46.171202" lon="9.952781"></trkpt>
      <trkpt lat="46.171265" lon="9.952878"></trkpt>
      <trkpt lat="46.171336" lon="9.952945"></trkpt>
      <trkpt lat="46.171393" lon="9.953034"></trkpt>
      <trkpt lat="46.171446" lon="9.953120"></trkpt>
      <trkpt lat="46.171510" lon="9.953186"></trkpt>
      <trkpt lat="46.171562" lon="9.953260"></trkpt>
      <trkpt lat="46.171629" lon="9.953313"></trkpt>
      <trkpt lat="46.171695" lon="9.953373"></trkpt>
      <trkpt lat="46.171747" lon="9.953442"></trkpt>
      <trkpt lat="46.171816" lon="9.953492"></trkpt>
      <trkpt lat="46.171865" lon="9.953559"></trkpt>
      <trkpt lat="46.171920" lon="9.953608"></trkpt>
      <trkpt lat="46.171993" lon="9.953663"></trkpt>
      <trkpt lat="46.172053" lon="9.953708"></trkpt>
      <trkpt lat="46.172115" lon="9.953759"></trkpt>
      <trkpt lat="46.172163" lon="9.953823"></trkpt>
      <trkpt lat="46.172222" lon="9.953886"></trkpt>
      <trkpt lat="46.172296" lon="9.953936"></trkpt>
      <trkpt lat="46.172352" lon="9.953995"></trkpt>
      <trkpt lat="46.172411" lon="9.954068"></trkpt>
      <trkpt lat="46.172472" lon="9.954129"></trkpt>
      <trkpt lat="46.172529" lon="9.954198"></trkpt>
      <trkpt lat="46.172595" lon="9.954280"></trkpt>
      <trkpt lat="46.172646" lon="9.954345"></trkpt>
      <trkpt lat="46.172707" lon="9.954441"></trkpt>
      <trkpt lat="46.172780" lon="9.954517"></trkpt>
      <trkpt lat="46.172839" lon="9.954613"></trkpt>
      <trkpt lat="46.172893" lon="9.954712"></trkpt>
      <trkpt lat="46.172952" lon="9.954826"></trkpt>
      <trkpt lat="46.173024" lon="9.954936"></trkpt>
      <trkpt lat="46.173068" lon="9.955049"></trkpt>
      <trkpt lat="46.173128" lon="9.955158"></trkpt>
      <trkpt lat="46.173191" lon="9.955296"></trkpt>
      <trkpt lat="46.173249" lon="9.955425"></trkpt>
      <trkpt lat="46.173320" lon="9.955544"></trkpt>
      <trkpt lat="46.173383" lon="9.955695"></trkpt>
      <trkpt lat="46.173428" lon="9.955845"></trkpt>
      <trkpt lat="46.173505" lon="9.955990"></trkpt>
      <trkpt lat="46.173551" lon="9.956140"></trkpt>
      <trkpt lat="46.173626" lon="9.956292"></trkpt>
      <trkpt lat="46.173669" lon="9.956458"></trkpt>
      <trkpt lat="46.173747" lon="9.956607"></trkpt>
      <trkpt lat="46.173791" lon="9.956774"></trkpt>
      <trkpt lat="46.173862" lon="9.956936"></trkpt>
      <trkpt lat="46.173910" lon="9.957110"></trkpt>
      <trkpt lat="46.173988" lon="9.957278"></trkpt>
      <trkpt lat="46.174042" lon="9.957448"></trkpt>
      <trkpt lat="46.174100" lon="9.957603"></trkpt>
      <trkpt lat="46.174164" lon="9.957779"></trkpt>
      <trkpt lat="46.174225" lon="9.957942"></trkpt>
      <trkpt lat="46.174275" lon="9.958105"></trkpt>
      <trkpt lat="46.174346" lon="9.958257"></trkpt>
      <trkpt lat="46.174395" lon="9.958419"></trkpt>
      <trkpt lat="46.174460" lon="9.958588"></trkpt>
      <trkpt lat="46.174526" lon="9.958731"></trkpt>
      <trkpt lat="46.174584" lon="9.958869"></trkpt>
      <trkpt lat="46.174643" lon="9.959018"></trkpt>
      <trkpt lat="46.174695" lon="9.959165"></trkpt>
      <trkpt lat="46.174757" lon="9.959300"></trkpt>
      <trkpt lat="46.174814" lon="9.959420"></trkpt>
      <trkpt lat="46.174879" lon="9.959554"></trkpt>
      <trkpt lat="46.174935" lon="9.959654"></trkpt>
      <trkpt lat="46.175005" lon="9.959775"></trkpt>
      <trkpt lat="46.175066" lon="9.959878"></trkpt>
      <trkpt lat="46.175118" lon="9.959991"></trkpt>
      <trkpt lat="46.175177" lon="9.960085"></trkpt>
      <trkpt lat="46.175255" lon="9.960170"></trkpt>
      <trkpt lat="46.175315" lon="9.960254"></trkpt>
      <trkpt lat="46.175371" lon="9.960341"></trkpt>
      <trkpt lat="46.175432" lon="9.960411"></trkpt>
      <trkpt lat="46.175495" lon="9.960499"></trkpt>
      <trkpt lat="46.175553" lon="9.960568"></trkpt>
      <trkpt lat="46.175603" lon="9.960625"></trkpt>
      <trkpt lat="46.175665" lon="9.960694"></trkpt>
      <trkpt lat="46.175728" lon="9.960743"></trkpt>
      <trkpt lat="46.175779" lon="9.960812"></trkpt>
      <trkpt lat="46.175857" lon="9.960860"></trkpt>
      <trkpt lat="46.175902" lon="9.960929"></trkpt>
      <trkpt lat="46.175977" lon="9.960966"></trkpt>
      <trkpt lat="46.176032" lon="9.961023"></trkpt>
      <trkpt lat="46.176090" lon="9.961082"></trkpt>
      <trkpt lat="46.176152" lon="9.961133"></trkpt>
      <trkpt lat="46.176217" lon="9.961197"></trkpt>
      <trkpt lat="46.176263" lon="9.961241"></trkpt>
      <trkpt lat="46.176330" lon="9.961306"></trkpt>
      <trkpt lat="46.176383" lon="9.961378"></trkpt>
      <trkpt lat="46.176459" lon="9.961436"></trkpt>
      <trkpt lat="46.176507" lon="9.961514"></trkpt>
      <trkpt lat="46.176575" lon="9.961580"></trkpt>
      <trkpt lat="46.176640" lon="9.961658"></trkpt>
      <trkpt lat="46.176696" lon="9.961741"></trkpt>
      <trkpt lat="46.176746" lon="9.961835"></trkpt>
      <trkpt lat="46.176817" lon="9.961926"></trkpt>
      <trkpt lat="46.176882" lon="9.962019"></trkpt>
      <trkpt lat="46.176931" lon="9.962120"></trkpt>
      <trkpt lat="46.176998" lon="9.962215"></trkpt>
      <trkpt lat="46.177047" lon="9.962330"></trkpt>
      <trkpt lat="46.177116" lon="9.962460"></trkpt>
      <trkpt lat="46.177175" lon="9.962570"></trkpt>
      <trkpt lat="46.177236" lon="9.962701"></trkpt>
      <trkpt lat="46.177306" lon="9.962836"></trkpt>
      <trkpt lat="46.177360" lon="9.962988"></trkpt>
      <trkpt lat="46.177411" lon="9.963120"></trkpt>
      <trkpt lat="46.177483" lon="9.963263"></trkpt>
      <trkpt lat="46.177547" lon="9.963426"></trkpt>
      <trkpt lat="46.177598" lon="9.963579"></trkpt>
      <trkpt lat="46.177652" lon="9.963731"></trkpt>
      <trkpt lat="46.177728" lon="9.963890"></trkpt>
      <trkpt lat="46.177785" lon="9.964061"></trkpt>
      <trkpt lat="46.177838" lon="9.964222"></trkpt>
      <trkpt lat="46.177905" lon="9.964397"></trkpt>
      <trkpt lat="46.177968" lon="9.964558"></trkpt>
      <trkpt lat="46.178018" lon="9.964718"></trkpt>
      <trkpt lat="46.178078" lon="9.964889"></trkpt>
      <trkpt lat="46.178149" lon="9.965048"></trkpt>
      <trkpt lat="46.178191" lon="9.965221"></trkpt>
      <trkpt lat="46.178264" lon="9.965376"></trkpt>
      <trkpt lat="46.178325" lon="9.965552"></trkpt>
      <trkpt lat="46.178378" lon="9.965710"></trkpt>
      <trkpt lat="46.178440" lon="9.965857"></trkpt>
      <trkpt lat="46.178512" lon="9.966014"></trkpt>
      <trkpt lat="46.178564" lon="9.966165"></trkpt>
      <trkpt lat="46.178624" lon="9.966309"></trkpt>
      <trkpt lat="46.178684" lon="9.966454"></trkpt>
      <trkpt lat="46.178735" lon="9.966583"></trkpt>
      <trkpt lat="46.178811" lon="9.966719"></trkpt>
      <trkpt lat="46.178870" lon="9.966831"></trkpt>
      <trkpt lat="46.178931" lon="9.966966"></trkpt>
      <trkpt lat="46.178992" lon="9.967072"></trkpt>
      <trkpt lat="46.179051" lon="9.967191"></trkpt>
      <trkpt lat="46.179099" lon="9.967278"></trkpt>
      <trkpt lat="46.179170" lon="9.967391"></trkpt>
      <trkpt lat="46.179226" lon="9.967482"></trkpt>
      <trkpt lat="46.179290" lon="9.967563"></trkpt>
      <trkpt lat="46.179355" lon="9.967640"></trkpt>
      <trkpt lat="46.179410" lon="9.967721"></trkpt>
      <trkpt lat="46.179471" lon="9.967804"></trkpt>
      <trkpt lat="46.179518" lon="9.967866"></trkpt>
      <trkpt lat="46.179583" lon="9.967939"></trkpt>
      <trkpt lat="46.179644" lon="9.968005"></trkpt>
      <trkpt lat="46.179708" lon="9.968073"></trkpt>
      <trkpt lat="46.179773" lon="9.968127"></trkpt>
      <trkpt lat="46.179833" lon="9.968189"></trkpt>
      <trkpt lat="46.179882" lon="9.968243"></trkpt>
      <trkpt lat="46.179950" lon="9.968286"></trkpt>
      <trkpt lat="46.180007" lon="9.968348"></trkpt>
      <trkpt lat="46.180072" lon="9.968404"></trkpt>
      <trkpt lat="46.180128" lon="9.968458"></trkpt>
      <trkpt lat="46.180185" lon="9.968516"></trkpt>
      <trkpt lat="46.180251" lon="9.968557"></trkpt>
      <trkpt lat="46.180302" lon="9.968627"></trkpt>
      <trkpt lat="46.180370" lon="9.968678"></trkpt>
      <trkpt lat="46.180425" lon="9.968744"></trkpt>
      <trkpt lat="46.180485" lon="9.968809"></trkpt>
      <trkpt lat="46.180559" lon="9.968885"></trkpt>
      <trkpt lat="46.180620" lon="9.968971"></trkpt>
      <trkpt lat="46.180673" lon="9.969052"></trkpt>
      <trkpt lat="46.180744" lon="9.969139"></trkpt>
      <trkpt lat="46.180797" lon="9.969211"></trkpt>
      <trkpt lat="46.180862" lon="9.969322"></trkpt>
      <trkpt lat="46.180921" lon="9.969419"></trkpt>
      <trkpt lat="46.180979" lon="9.969511"></trkpt>
      <trkpt lat="46.181038" lon="9.969637"></trkpt>
      <trkpt lat="46.181094" lon="9.969742"></trkpt>
      <trkpt lat="46.181159" lon="9.969876"></trkpt>
      <trkpt lat="46.181222" lon="9.969999"></trkpt>
      <trkpt lat="46.181275" lon="9.970133"></trkpt>
      <trkpt lat="46.181335" lon="9.970260"></trkpt>
      <trkpt lat="46.181395" lon="9.970413"></trkpt>
      <trkpt lat="46.181461" lon="9.970557"></trkpt>
      <trkpt lat="46.181515" lon="9.970710"></trkpt>
      <trkpt lat="46.181580" lon="9.970862"></trkpt>
      <trkpt lat="46.181643" lon="9.971011"></trkpt>
      <trkpt lat="46.181689" lon="9.971168"></trkpt>
      <trkpt lat="46.181763" lon="9.971330"></trkpt>
      <trkpt lat="46.181809" lon="9.971492"></trkpt>
      <trkpt lat="46.181883" lon="9.971656"></trkpt>
      <trkpt lat="46.181934" lon="9.971823"></trkpt>
      <trkpt lat="46.181996" lon="9.971992"></trkpt>
    </trkseg>
  </trk>
</gpx>
